[
  {
    "name": "上麻生保育園",
    "link": "http://www.city.kawasaki.jp/450/page/0000031581.html",
    "address": "麻生区上麻生7-2-3",
    "postcode": "215-0021",
    "phone": "044-988-8520"
  },
  {
    "name": "高石保育園",
    "link": "http://www.city.kawasaki.jp/450/page/0000031586.html",
    "address": "麻生区高石1-14-15",
    "postcode": "215-0003",
    "phone": "044-954-5355"
  },
  {
    "name": "白山保育園",
    "link": "http://www.city.kawasaki.jp/450/page/0000031608.html",
    "address": "麻生区白山4-2-1",
    "postcode": "215-0014",
    "phone": "044-987-7722"
  },
  {
    "name": "社会福祉法人横浜悠久会白鳥保育園",
    "link": "http://www.city.kawasaki.jp/450/page/0000031616.html",
    "address": "麻生区白鳥1-17-2",
    "postcode": "215-0024",
    "phone": "044-987-8206"
  },
  {
    "name": "柿生保育園",
    "link": "http://www.city.kawasaki.jp/450/page/0000031622.html",
    "address": "麻生区上麻生5-23-1",
    "postcode": "215-0021",
    "phone": "044-988-1453"
  },
  {
    "name": "すぎのこ保育園",
    "link": "http://www.city.kawasaki.jp/450/page/0000031731.html",
    "address": "麻生区岡上71-3",
    "postcode": "215-0027",
    "phone": "044-988-3415"
  },
  {
    "name": "あさのみ保育園",
    "link": "http://www.city.kawasaki.jp/450/page/0000031739.html",
    "address": "麻生区上麻生3-22-14",
    "postcode": "215-0021",
    "phone": "044-969-5403"
  },
  {
    "name": "保育園キディ百合丘",
    "link": "http://www.city.kawasaki.jp/450/page/0000031707.html",
    "address": "麻生区百合丘1-16　サンラフレ百合丘7-201",
    "postcode": "215-0011",
    "phone": "044-322-0510"
  },
  {
    "name": "はるひ野保育園",
    "link": "http://www.city.kawasaki.jp/450/page/0000031699.html",
    "address": "麻生区はるひ野2-7-1",
    "postcode": "215-0036",
    "phone": "044-281-8787"
  },
  {
    "name": "木下の保育園新百合ヶ丘",
    "link": "http://www.city.kawasaki.jp/450/page/0000031695.html",
    "address": "麻生区古沢43　コザワビル2階",
    "postcode": "215-0026",
    "phone": "044-959-1169"
  },
  {
    "name": "小学館アカデミー新ゆり山手保育園",
    "link": "http://www.city.kawasaki.jp/450/page/0000031689.html",
    "address": "麻生区万福寺4-19　プライムアリーナ新百合ヶ丘1・2階",
    "postcode": "215-0004",
    "phone": "044-959-2156"
  },
  {
    "name": "五月台ルミナス保育園",
    "link": "http://www.city.kawasaki.jp/450/page/0000031679.html",
    "address": "麻生区五力田3-18-3",
    "postcode": "215-0025",
    "phone": "044-299-9111"
  },
  {
    "name": "至誠館ゆりがおか保育園",
    "link": "http://www.city.kawasaki.jp/450/page/0000031674.html",
    "address": "麻生区百合丘1-18-4",
    "postcode": "215-0011",
    "phone": "044-966-5555"
  },
  {
    "name": "くろかわのぞみ保育園",
    "link": "http://www.city.kawasaki.jp/450/page/0000031672.html",
    "address": "麻生区はるひ野4-7-1",
    "postcode": "215-0036",
    "phone": "044-819-7481"
  },
  {
    "name": "アスク柿生保育園",
    "link": "http://www.city.kawasaki.jp/450/page/0000031663.html",
    "address": "麻生区上麻生5-40-4",
    "postcode": "215-0021",
    "phone": "044-980-0750"
  },
  {
    "name": "百合丘ルミナス保育園",
    "link": "http://www.city.kawasaki.jp/450/page/0000090346.html",
    "address": "麻生区百合丘1-19-2",
    "postcode": "215-0011",
    "phone": "044-969-5258"
  },
  {
    "name": "柿生ルミナス保育園",
    "link": "http://www.city.kawasaki.jp/450/page/0000078961.html",
    "address": "麻生区片平2-30-1",
    "postcode": "215-0023",
    "phone": "044-980-1622"
  },
  {
    "name": "天才キッズクラブ楽学館万福寺園",
    "link": "http://www.city.kawasaki.jp/450/page/0000118962.html",
    "address": "麻生区片平2-30-1",
    "postcode": "215-0023",
    "phone": "044-322-9739"
  },
  {
    "name": "あい・あい保育園百合ヶ丘園",
    "link": "http://www.city.kawasaki.jp/450/page/0000079522.html",
    "address": "麻生区万福寺4-1-3",
    "postcode": "215-0004",
    "phone": "044-543-8709"
  },
  {
    "name": "クレアナーサリー新百合ヶ丘",
    "link": "http://www.city.kawasaki.jp/450/page/0000060144.html",
    "address": "麻生区上麻生3-1-1",
    "postcode": "215-0021",
    "phone": "044-322-9251"
  },
  {
    "name": "くりの実保育園",
    "link": "http://www.city.kawasaki.jp/450/page/0000098539.html",
    "address": "麻生区片平4-1-30",
    "postcode": "215-0023",
    "phone": "044-712-0660"
  },
  {
    "name": "アイン栗平保育園",
    "link": "http://www.city.kawasaki.jp/450/page/0000079018.html",
    "address": "麻生区栗木台1-1-16",
    "postcode": "215-0032",
    "phone": "044-988-3115"
  },
  {
    "name": "天才キッズクラブ楽学館保育園",
    "link": "http://www.city.kawasaki.jp/450/page/0000079034.html",
    "address": "麻生区上麻生1-3-9　新百合ヶ丘KIビル2階",
    "postcode": "215-0021",
    "phone": "044-959-3773"
  },
  {
    "name": "天才キッズクラブ楽学館百合ヶ丘園",
    "link": "http://www.city.kawasaki.jp/450/page/0000098381.html",
    "address": "麻生区上麻生1-3-9　新百合ヶ丘KIビル2階",
    "postcode": "215-0021",
    "phone": "044-712-5025"
  },
  {
    "name": "天才キッズクラブ楽学館古沢園",
    "link": "http://www.city.kawasaki.jp/450/page/0000109001.html",
    "address": "麻生区片平2-30-1",
    "postcode": "215-0023",
    "phone": "044-455-5651"
  },
  {
    "name": "ポピンズナーサリースクール百合ヶ丘",
    "link": "http://www.city.kawasaki.jp/450/page/0000076548.html",
    "address": "麻生区百合丘1-24-9",
    "postcode": "215-0011",
    "phone": "044-959-5421"
  },
  {
    "name": "王禅寺しらゆり保育園",
    "link": "http://www.city.kawasaki.jp/450/page/0000079048.html",
    "address": "神奈川県川崎市麻生区王禅寺東5-3-53",
    "postcode": "215-0018",
    "phone": "044-988-0700"
  },
  {
    "name": "つくしんぼ保育園",
    "link": "http://www.city.kawasaki.jp/450/page/0000089833.html",
    "address": "麻生区上麻生3-3－11",
    "postcode": "215-0021",
    "phone": "044-967-0331"
  },
  {
    "name": "はじめの一歩保育園",
    "link": "http://www.city.kawasaki.jp/450/page/0000061141.html",
    "address": "麻生区上麻生7-41-5",
    "postcode": "215-0021",
    "phone": "044-981-5105"
  },
  {
    "name": "麻生ゆりのき保育園",
    "link": "http://www.city.kawasaki.jp/450/page/0000060143.html",
    "address": "麻生区千代ヶ丘1-17-2",
    "postcode": "215-0005",
    "phone": "044-543-9041"
  },
  {
    "name": "アスク新百合ヶ丘保育園",
    "link": "http://www.city.kawasaki.jp/450/page/0000048912.html",
    "address": "麻生区古沢197-6",
    "postcode": "215-0026",
    "phone": "044-969-5002"
  },
  {
    "name": "ぶれすと白鳥ほいくえん",
    "link": "http://www.city.kawasaki.jp/450/page/0000090676.html",
    "address": "麻生区白鳥三丁目5番1号",
    "postcode": "215-0021",
    "phone": "044-455-7266"
  }
]