[
  {
    "name": "有馬保育園",
    "link": "http://www.city.kawasaki.jp/450/page/0000031263.html",
    "address": "宮前区東有馬5-16-1",
    "postcode": "216-0002",
    "phone": "044-888-3751"
  },
  {
    "name": "菅生保育園",
    "link": "http://www.city.kawasaki.jp/450/page/0000031275.html",
    "address": "宮前区初山1-23-15",
    "postcode": "216-0026",
    "phone": "044-977-9320"
  },
  {
    "name": "平保育園",
    "link": "http://www.city.kawasaki.jp/450/page/0000031290.html",
    "address": "宮前区平2-13-1",
    "postcode": "216-0022",
    "phone": "044-865-1031"
  },
  {
    "name": "中有馬保育園",
    "link": "http://www.city.kawasaki.jp/450/page/0000031296.html",
    "address": "宮前区有馬3-2-10",
    "postcode": "216-0003",
    "phone": "044-854-0425"
  },
  {
    "name": "土橋保育園",
    "link": "http://www.city.kawasaki.jp/450/page/0000031310.html",
    "address": "宮前区土橋2-14-1",
    "postcode": "216-0005",
    "phone": "044-855-2877"
  },
  {
    "name": "みやざき保育園",
    "link": "http://www.city.kawasaki.jp/450/page/0000031315.html",
    "address": "宮前区宮前平1-2-2",
    "postcode": "216-0006",
    "phone": "044-855-7520"
  },
  {
    "name": "野川南台保育園",
    "link": "http://www.city.kawasaki.jp/450/page/0000031332.html",
    "address": "宮前区野川2252-6",
    "postcode": "216-0001",
    "phone": "044-740-1833"
  },
  {
    "name": "こどものいえもも保育園",
    "link": "http://www.city.kawasaki.jp/450/page/0000031341.html",
    "address": "宮前区馬絹1－24－9",
    "postcode": "216-0035",
    "phone": "044-860-2415"
  },
  {
    "name": "もものか保育園",
    "link": "http://www.city.kawasaki.jp/450/page/0000031346.html",
    "address": "宮前区馬絹1ー9ー2",
    "postcode": "216-0035",
    "phone": "044-860-2781"
  },
  {
    "name": "さぎ沼なごみ保育園",
    "link": "http://www.city.kawasaki.jp/450/page/0000031352.html",
    "address": "宮前区土橋3-1-6",
    "postcode": "216-0005",
    "phone": "044-871-7531"
  },
  {
    "name": "アスクさぎぬま保育園",
    "link": "http://www.city.kawasaki.jp/450/page/0000031361.html",
    "address": "宮前区鷺沼1-22-6",
    "postcode": "216-0004",
    "phone": "044-860-2708"
  },
  {
    "name": "アスク宮前平えきまえ保育園",
    "link": "http://www.city.kawasaki.jp/450/page/0000031363.html",
    "address": "宮前区宮前平1-12-5",
    "postcode": "216-0006",
    "phone": "044-856-7911"
  },
  {
    "name": "ティンクル上野川保育園",
    "link": "http://www.city.kawasaki.jp/450/page/0000031367.html",
    "address": "宮前区西野川2-37-13",
    "postcode": "216-0044",
    "phone": "044-752-2868"
  },
  {
    "name": "宮前平もりのこ保育園",
    "link": "http://www.city.kawasaki.jp/450/page/0000031372.html",
    "address": "宮前区宮前平2-5-16",
    "postcode": "216-0006",
    "phone": "044-865-2116"
  },
  {
    "name": "小学館アカデミーさぎぬま保育園",
    "link": "http://www.city.kawasaki.jp/450/page/0000031378.html",
    "address": "宮前区鷺沼1-23-7",
    "postcode": "216-0004",
    "phone": "044-862-8721"
  },
  {
    "name": "ぶどうの実鷺沼園",
    "link": "http://www.city.kawasaki.jp/450/page/0000031389.html",
    "address": "宮前区鷺沼2-7-23",
    "postcode": "216-0004",
    "phone": "044-870-7171"
  },
  {
    "name": "小学館アカデミーみやまえだいら保育園",
    "link": "http://www.city.kawasaki.jp/450/page/0000031393.html",
    "address": "宮前区宮前平2-1-2",
    "postcode": "216-0006",
    "phone": "044-862-8615"
  },
  {
    "name": "みやまえの杜保育園",
    "link": "http://www.city.kawasaki.jp/450/page/0000119666.html",
    "address": "宮前区宮前平3-9-1",
    "postcode": "210-0006",
    "phone": "044-872-7455"
  },
  {
    "name": "まなびの森保育園馬絹",
    "link": "http://www.city.kawasaki.jp/450/page/0000119069.html",
    "address": "宮前区馬絹4-1-18",
    "postcode": "216-0035",
    "phone": "044-750-7878"
  },
  {
    "name": "スターチャイルド≪宮前平ナーサリー≫",
    "link": "http://www.city.kawasaki.jp/450/page/0000118850.html",
    "address": "宮前区馬絹1丁目6-8　宮前平DRビル2F",
    "postcode": "216-0035",
    "phone": "044-870-0888"
  },
  {
    "name": "明日葉保育園宮崎台園",
    "link": "http://www.city.kawasaki.jp/450/page/0000091557.html",
    "address": "神奈川県川崎市宮前区馬絹2-2-3",
    "postcode": "216-0035",
    "phone": "044-948-7080"
  },
  {
    "name": "明日葉保育園鷺沼園",
    "link": "http://www.city.kawasaki.jp/450/page/0000060137.html",
    "address": "宮前区鷺沼1-6-3",
    "postcode": "216-0004",
    "phone": "044-982-9186"
  },
  {
    "name": "あい・あい保育園　宮前平園",
    "link": "http://www.city.kawasaki.jp/450/page/0000109928.html",
    "address": "宮前区土橋2-1-7",
    "postcode": "216-0005",
    "phone": "044-750-7288"
  },
  {
    "name": "アスク宮崎台保育園",
    "link": "http://www.city.kawasaki.jp/450/page/0000060237.html",
    "address": "宮前区宮前平1-1-15",
    "postcode": "216-0006",
    "phone": "044-871-2108"
  },
  {
    "name": "まなびの森保育園宮前平",
    "link": "http://www.city.kawasaki.jp/450/page/0000065201.html",
    "address": "宮前区土橋2-5-1",
    "postcode": "216-0005",
    "phone": "044-855-5123"
  },
  {
    "name": "かわさき犬蔵保育園",
    "link": "http://www.city.kawasaki.jp/450/page/0000068984.html",
    "address": "宮前区犬蔵2-4-29",
    "postcode": "216-0004",
    "phone": "044-978-5080"
  },
  {
    "name": "まなびの森保育園宮崎台",
    "link": "http://www.city.kawasaki.jp/450/page/0000093259.html",
    "address": "宮前区宮崎2-3-11",
    "postcode": "216-0033",
    "phone": "044-853-0020"
  },
  {
    "name": "わらべうた鷺沼保育園",
    "link": "http://www.city.kawasaki.jp/450/page/0000078849.html",
    "address": "宮前区鷺沼1－8－5",
    "postcode": "216-0004",
    "phone": "044-982-1313"
  },
  {
    "name": "わらべうた宮崎台保育園",
    "link": "http://www.city.kawasaki.jp/450/page/0000070504.html",
    "address": "川崎市宮前区宮崎2－9－3　メゾン・ド・バッハ3階",
    "postcode": "216-0033",
    "phone": "044-870-1144"
  },
  {
    "name": "有馬の杜コスモス保育園",
    "link": "http://www.city.kawasaki.jp/450/page/0000070774.html",
    "address": "宮前区有馬6-10-31",
    "postcode": "216-0003",
    "phone": "044-982-3380"
  },
  {
    "name": "ピュアリー宮前平保育園",
    "link": "http://www.city.kawasaki.jp/450/page/0000080718.html",
    "address": "宮前区馬絹1ー28ー12",
    "postcode": "216-0035",
    "phone": "044-852-0007"
  },
  {
    "name": "みなみすがお保育園",
    "link": "http://www.city.kawasaki.jp/450/page/0000109891.html",
    "address": "宮前区菅生4-4-1",
    "postcode": "216-0015",
    "phone": "044-863-8741"
  },
  {
    "name": "たつのこのはら保育園",
    "link": "http://www.city.kawasaki.jp/450/page/0000050757.html",
    "address": "宮前区土橋4-7-1",
    "postcode": "216-0005",
    "phone": "044-920-9200"
  },
  {
    "name": "有馬川はなみずき保育園",
    "link": "http://www.city.kawasaki.jp/450/page/0000048968.html",
    "address": "宮前区東有馬5-23-43",
    "postcode": "216-0002",
    "phone": "044-870-3434"
  },
  {
    "name": "ティンクルくぬぎ坂保育園",
    "link": "http://www.city.kawasaki.jp/450/page/0000050759.html",
    "address": "宮前区野川1483-1",
    "postcode": "216-0001",
    "phone": "044-920-9611"
  },
  {
    "name": "すきっぷ保育園",
    "link": "http://www.city.kawasaki.jp/450/page/0000069753.html",
    "address": "宮前区宮崎2－1－1生活クラブ高津センター2階",
    "postcode": "216-0033",
    "phone": "044-877-6215"
  },
  {
    "name": "アスク宮前平保育園",
    "link": "http://www.city.kawasaki.jp/450/page/0000079394.html",
    "address": "宮前区宮前平2－11－6",
    "postcode": "216-0006",
    "phone": "044-854-4855"
  },
  {
    "name": "あおぞら保育園",
    "link": "http://www.city.kawasaki.jp/450/page/0000091624.html",
    "address": "川崎市宮前区土橋2-11-12 向山ビル2F",
    "postcode": "216-0005",
    "phone": "044-820-6852"
  },
  {
    "name": "にじいろ保育園犬蔵",
    "link": "http://www.city.kawasaki.jp/450/page/0000069385.html",
    "address": "宮前区犬蔵2-24-10",
    "postcode": "216-0011",
    "phone": "044-982-3144"
  },
  {
    "name": "にじいろ保育園宮前平",
    "link": "http://www.city.kawasaki.jp/450/page/0000088465.html",
    "address": "神奈川県川崎市宮前区馬絹1-6-2",
    "postcode": "216-0035",
    "phone": "044-982-0790"
  },
  {
    "name": "宮崎台コスモス保育園",
    "link": "http://www.city.kawasaki.jp/450/page/0000109879.html",
    "address": "宮前区宮崎2丁目6-10　1F",
    "postcode": "216-0033",
    "phone": "044-877-5624"
  },
  {
    "name": "保育園SCOPS宮崎台",
    "link": "http://www.city.kawasaki.jp/450/page/0000108324.html",
    "address": "宮前区宮崎2-9-15　アーバンコート宮崎台1F",
    "postcode": "216-0033",
    "phone": "044-861-1150"
  },
  {
    "name": "くぬぎ保育園",
    "link": "http://www.city.kawasaki.jp/450/page/0000109889.html",
    "address": "宮前区土橋1-4-5",
    "postcode": "216-0005",
    "phone": "044-750-9889"
  },
  {
    "name": "ナーサリールーム ベリーベアー鷺沼Annex",
    "link": "http://www.city.kawasaki.jp/450/page/0000091565.html",
    "address": "宮前区東有馬2-35-38",
    "postcode": "216-0002",
    "phone": "044-863-6007"
  },
  {
    "name": "ナーサリールームベリーベアー鷺沼",
    "link": "http://www.city.kawasaki.jp/450/page/0000068853.html",
    "address": "宮前区鷺沼3-5-2　MCビル1～3階",
    "postcode": "216-0004",
    "phone": "044-948-7941"
  },
  {
    "name": "宮前空翠保育園",
    "link": "http://www.city.kawasaki.jp/450/page/0000078062.html",
    "address": "川崎市宮前区土橋1-2-3",
    "postcode": "216-0005",
    "phone": "044-855-8815"
  },
  {
    "name": "ピュアリー鷺沼保育園",
    "link": "http://www.city.kawasaki.jp/450/page/0000099411.html",
    "address": "宮前区鷺沼3-2-4",
    "postcode": "216-0004",
    "phone": "044-948-8458"
  },
  {
    "name": "ぶどうの実第2さぎぬま園",
    "link": "http://www.city.kawasaki.jp/450/page/0000099407.html",
    "address": "宮前区鷺沼2-6-5",
    "postcode": "216-0004",
    "phone": "044-860-3315"
  },
  {
    "name": "保育園アリス馬絹",
    "link": "http://www.city.kawasaki.jp/450/page/0000099412.html",
    "address": "宮前区馬絹4-18-27",
    "postcode": "216-0035",
    "phone": "044-872-7071"
  },
  {
    "name": "グリーンフォレスト神木保育園",
    "link": "http://www.city.kawasaki.jp/450/page/0000060139.html",
    "address": "宮前区神木本町2-5-5",
    "postcode": "216-0031",
    "phone": "044-871-7010"
  },
  {
    "name": "西有馬おひさま保育園",
    "link": "http://www.city.kawasaki.jp/450/page/0000060269.html",
    "address": "宮前区有馬1-8-6",
    "postcode": "216-0003",
    "phone": "044-855-2525"
  },
  {
    "name": "ナーサリールーム ベリーベアー宮崎台",
    "link": "http://www.city.kawasaki.jp/450/page/0000099545.html",
    "address": "宮前区宮崎3-13-27",
    "postcode": "216-0033",
    "phone": "044-750-9800"
  },
  {
    "name": "向丘はなみずき保育園",
    "link": "http://www.city.kawasaki.jp/450/page/0000091732.html",
    "address": "川崎市宮前区南平台4－2",
    "postcode": "216-0024",
    "phone": "044-750-0150"
  },
  {
    "name": "可愛保育園",
    "link": "http://www.city.kawasaki.jp/450/page/0000091570.html",
    "address": "川崎市宮前区宮前平1－9－24　A101・A102",
    "postcode": "216-0006",
    "phone": "044-855-8496"
  },
  {
    "name": "クレアナーサリー宮前平",
    "link": "http://www.city.kawasaki.jp/450/page/0000070578.html",
    "address": "宮前区小台2－11－3",
    "postcode": "216-0007",
    "phone": "044-872-9368"
  }
]