[
  {
    "name": "平間保育園",
    "link": "http://www.city.kawasaki.jp/450/page/0000031455.html",
    "address": "中原区上平間366",
    "postcode": "211-0013",
    "phone": "044-533-0116"
  },
  {
    "name": "平間乳児保育園",
    "link": "http://www.city.kawasaki.jp/450/page/0000031280.html",
    "address": "中原区上平間366",
    "postcode": "211-0013",
    "phone": "044-533-0117"
  },
  {
    "name": "中丸子保育園",
    "link": "http://www.city.kawasaki.jp/450/page/0000031267.html",
    "address": "中原区中丸子1155",
    "postcode": "211-0012",
    "phone": "044-411-5559"
  },
  {
    "name": "中原保育園",
    "link": "http://www.city.kawasaki.jp/450/page/0000031250.html",
    "address": "中原区小杉町3-245（仮園舎）",
    "postcode": "211-0063",
    "phone": "044-733-3835"
  },
  {
    "name": "下小田中保育園",
    "link": "http://www.city.kawasaki.jp/450/page/0000031235.html",
    "address": "中原区下小田中4-4-17",
    "postcode": "211-0041",
    "phone": "044-788-5890"
  },
  {
    "name": "西宮内保育園",
    "link": "http://www.city.kawasaki.jp/450/page/0000031032.html",
    "address": "中原区宮内1-21-27（仮園舎）",
    "postcode": "211-0051",
    "phone": "044-755-6266"
  },
  {
    "name": "さくらの木保育園",
    "link": "http://www.city.kawasaki.jp/450/page/0000030989.html",
    "address": "中原区下小田中1-11-1",
    "postcode": "211-0041",
    "phone": "044-766-6001"
  },
  {
    "name": "さくらの木乳児保育園",
    "link": "http://www.city.kawasaki.jp/450/page/0000030983.html",
    "address": "中原区下小田中1-11-1",
    "postcode": "211-0041",
    "phone": "044-751-9038"
  },
  {
    "name": "にじいろ保育園南平間",
    "link": "http://www.city.kawasaki.jp/450/page/0000030978.html",
    "address": "中原区上平間1183",
    "postcode": "211-0013",
    "phone": "044-511-0010"
  },
  {
    "name": "多摩保育園",
    "link": "http://www.city.kawasaki.jp/450/page/0000030957.html",
    "address": "中原区上丸子山王町2-1337",
    "postcode": "211-0002",
    "phone": "044-411-1122"
  },
  {
    "name": "新日本保育園",
    "link": "http://www.city.kawasaki.jp/450/page/0000030839.html",
    "address": "中原区木月伊勢町3-3",
    "postcode": "211-0032",
    "phone": "044-722-3203"
  },
  {
    "name": "長寿保育園",
    "link": "http://www.city.kawasaki.jp/450/page/0000030810.html",
    "address": "中原区井田中ノ町12-20",
    "postcode": "211-0034",
    "phone": "044-777-5403"
  },
  {
    "name": "木月保育園",
    "link": "http://www.city.kawasaki.jp/450/page/0000030797.html",
    "address": "中原区木月4-42-14",
    "postcode": "211-0025",
    "phone": "044-433-1958"
  },
  {
    "name": "井田保育園",
    "link": "http://www.city.kawasaki.jp/450/page/0000030779.html",
    "address": "中原区井田1-26-33",
    "postcode": "211-0035",
    "phone": "044-751-1637"
  },
  {
    "name": "すみれ保育園",
    "link": "http://www.city.kawasaki.jp/450/page/0000030762.html",
    "address": "中原区木月住吉町1-12",
    "postcode": "211-0021",
    "phone": "044-430-5544"
  },
  {
    "name": "ももの里保育園",
    "link": "http://www.city.kawasaki.jp/450/page/0000030738.html",
    "address": "中原区宮内2-26-40",
    "postcode": "211-0051",
    "phone": "044-753-2980"
  },
  {
    "name": "こすぎっこ保育園",
    "link": "http://www.city.kawasaki.jp/450/page/0000030718.html",
    "address": "中原区新丸子東2-901",
    "postcode": "211-0004",
    "phone": "044-411-6594"
  },
  {
    "name": "わおわお元住吉保育園",
    "link": "http://www.city.kawasaki.jp/450/page/0000030701.html",
    "address": "中原区木月2-17-1",
    "postcode": "211-0025",
    "phone": "044-431-1180"
  },
  {
    "name": "まるこ保育園",
    "link": "http://www.city.kawasaki.jp/450/page/0000030695.html",
    "address": "中原区新丸子町726-5　ソレイユ倶楽部2",
    "postcode": "211-0005",
    "phone": "044-733-8550"
  },
  {
    "name": "アスク上小田中保育園",
    "link": "http://www.city.kawasaki.jp/450/page/0000030680.html",
    "address": "中原区上小田中3-25-29",
    "postcode": "211-0053",
    "phone": "044-740-5520"
  },
  {
    "name": "ベネッセ武蔵小杉保育園",
    "link": "http://www.city.kawasaki.jp/450/page/0000030655.html",
    "address": "中原区新丸子東3-1100-12 パークシティ武蔵小杉ミッドスカイタワー3F",
    "postcode": "211-0004",
    "phone": "044-430-0203"
  },
  {
    "name": "茶々いまい保育園",
    "link": "http://www.city.kawasaki.jp/450/page/0000030648.html",
    "address": "中原区今井仲町5-31",
    "postcode": "211-0065",
    "phone": "044-739-8551"
  },
  {
    "name": "アスク新丸子保育園",
    "link": "http://www.city.kawasaki.jp/450/page/0000030637.html",
    "address": "中原区新丸子町718　1・2F",
    "postcode": "211-0005",
    "phone": "044-738-0081"
  },
  {
    "name": "たんぽぽのはら保育園",
    "link": "http://www.city.kawasaki.jp/450/page/0000030632.html",
    "address": "中原区市ノ坪223-9",
    "postcode": "211-0016",
    "phone": "044-430-0143"
  },
  {
    "name": "すみよしのはら保育園",
    "link": "http://www.city.kawasaki.jp/450/page/0000030618.html",
    "address": "中原区木月祇園町17-2",
    "postcode": "211-0025",
    "phone": "044-411-6311"
  },
  {
    "name": "アスク元住吉保育園",
    "link": "http://www.city.kawasaki.jp/450/page/0000030603.html",
    "address": "中原区木月3-8-19",
    "postcode": "211-0025",
    "phone": "044-430-5613"
  },
  {
    "name": "らいらっく保育園",
    "link": "http://www.city.kawasaki.jp/450/page/0000030599.html",
    "address": "中原区木月伊勢町6-1",
    "postcode": "211-0032",
    "phone": "044-872-9888"
  },
  {
    "name": "アスク下小田中保育園",
    "link": "http://www.city.kawasaki.jp/450/page/0000030569.html",
    "address": "中原区下小田中3-29-16",
    "postcode": "211-0041",
    "phone": "044-741-1230"
  },
  {
    "name": "アスク武蔵小杉保育園",
    "link": "http://www.city.kawasaki.jp/450/page/0000030546.html",
    "address": "中原区小杉町1-526-5",
    "postcode": "211-0063",
    "phone": "044-739-4750"
  },
  {
    "name": "せせらぎ保育園",
    "link": "http://www.city.kawasaki.jp/450/page/0000030450.html",
    "address": "中原区新城1-14-7",
    "postcode": "211-0044",
    "phone": "044-752-6892"
  },
  {
    "name": "新城もりのこ保育園",
    "link": "http://www.city.kawasaki.jp/450/page/0000030463.html",
    "address": "中原区新城1-15-13",
    "postcode": "211-0044",
    "phone": "044-798-7015"
  },
  {
    "name": "茶々なかまち保育園",
    "link": "http://www.city.kawasaki.jp/450/page/0000030487.html",
    "address": "中原区今井仲町2-28",
    "postcode": "211-0065",
    "phone": "044-738-0221"
  },
  {
    "name": "まなびの森保育園小杉",
    "link": "http://www.city.kawasaki.jp/450/page/0000030495.html",
    "address": "中原区新丸子東3-1241-4",
    "postcode": "211-0004",
    "phone": "044-422-5111"
  },
  {
    "name": "アスク平間保育園",
    "link": "http://www.city.kawasaki.jp/450/page/0000030501.html",
    "address": "中原区北谷町7　1・2階",
    "postcode": "211-0015",
    "phone": "044-542-6920"
  },
  {
    "name": "アスク向河原保育園",
    "link": "http://www.city.kawasaki.jp/450/page/0000030508.html",
    "address": "中原区中丸子364-1",
    "postcode": "211-0012",
    "phone": "044-431-3090"
  },
  {
    "name": "ベネッセ元住吉保育園",
    "link": "http://www.city.kawasaki.jp/450/page/0000030512.html",
    "address": "中原区木月3-35-20",
    "postcode": "211-0025",
    "phone": "044-431-3171"
  },
  {
    "name": "小学館アカデミーかりやど保育園",
    "link": "http://www.city.kawasaki.jp/450/page/0000030520.html",
    "address": "中原区苅宿3-6",
    "postcode": "211-0022",
    "phone": "044-430-0180"
  },
  {
    "name": "武蔵中原もりのこ保育園",
    "link": "http://www.city.kawasaki.jp/450/page/0000030524.html",
    "address": "中原区下小田中3-7-20",
    "postcode": "211-0041",
    "phone": "044-777-5666"
  },
  {
    "name": "小学館アカデミーむさししんじょう保育園",
    "link": "http://www.city.kawasaki.jp/450/page/0000030527.html",
    "address": "中原区上小田中2-35-44",
    "postcode": "211-0053",
    "phone": "044-753-2007"
  },
  {
    "name": "アートチャイルドケア武蔵中原",
    "link": "http://www.city.kawasaki.jp/450/page/0000030531.html",
    "address": "中原区下小田中1-22-11",
    "postcode": "211-0041",
    "phone": "044-750-2123"
  },
  {
    "name": "まなびの森保育園新城",
    "link": "http://www.city.kawasaki.jp/450/page/0000030537.html",
    "address": "中原区新城中町6-20",
    "postcode": "211-0043",
    "phone": "044-777-3322"
  },
  {
    "name": "社会福祉法人長幼会玉川保育園",
    "link": "http://www.city.kawasaki.jp/450/page/0000101160.html",
    "address": "川崎市中原区北谷町61番地",
    "postcode": "211-0015",
    "phone": "044-555-1778"
  },
  {
    "name": "社会福祉法人けいわ会上小田中保育園",
    "link": "http://www.city.kawasaki.jp/450/page/0000060581.html",
    "address": "中原区上小田中1－28－25",
    "postcode": "211-0053",
    "phone": "044-982-9215"
  },
  {
    "name": "ぶれあ保育園・武蔵中原第二",
    "link": "http://www.city.kawasaki.jp/450/page/0000119779.html",
    "address": "中原区上小田中5-9-16",
    "postcode": "211-0053",
    "phone": "044-982-1174"
  },
  {
    "name": "ぶれあ保育園・武蔵中原",
    "link": "http://www.city.kawasaki.jp/450/page/0000098654.html",
    "address": "中原区上小田中5-9-13",
    "postcode": "211-0053",
    "phone": "044-948-9634"
  },
  {
    "name": "こころむさしなかはら保育園",
    "link": "http://www.city.kawasaki.jp/450/page/0000119691.html",
    "address": "中原区小田中1丁目7-23",
    "postcode": "211-0041",
    "phone": "044-982-1350"
  },
  {
    "name": "マリー保育園元住吉",
    "link": "http://www.city.kawasaki.jp/450/page/0000119669.html",
    "address": "中原区西加瀬2-2",
    "postcode": "211-0024",
    "phone": "044-948-8760"
  },
  {
    "name": "エクセレント武蔵小杉保育園",
    "link": "http://www.city.kawasaki.jp/450/page/0000119366.html",
    "address": "中原区新城1-10-17　JAセレサ川崎4階",
    "postcode": "211-0044",
    "phone": "044-733-5106"
  },
  {
    "name": "まなびの森保育園武蔵中原",
    "link": "http://www.city.kawasaki.jp/450/page/0000050747.html",
    "address": "中原区下小田中6-15-13",
    "postcode": "211-0041",
    "phone": "044-740-0404"
  },
  {
    "name": "小杉もりのこ保育園",
    "link": "http://www.city.kawasaki.jp/450/page/0000079042.html",
    "address": "中原区市ノ坪386-4",
    "postcode": "211-0016",
    "phone": "044-411-5855"
  },
  {
    "name": "まなびの森保育園向河原",
    "link": "http://www.city.kawasaki.jp/450/page/0000070717.html",
    "address": "中原区中丸子324－1",
    "postcode": "211-0012",
    "phone": "044-434-3365"
  },
  {
    "name": "そらいろ武蔵小杉保育園",
    "link": "http://www.city.kawasaki.jp/450/page/0000118871.html",
    "address": "中原区上丸子山王町1丁目1390番地白井ビル1F",
    "postcode": "211-0002",
    "phone": "044-948-6344"
  },
  {
    "name": "明日葉保育園元住吉園",
    "link": "http://www.city.kawasaki.jp/450/page/0000078623.html",
    "address": "中原区木月祇園町6‐31",
    "postcode": "211-0033",
    "phone": "044-982-3102"
  },
  {
    "name": "にじいろ保育園新丸子",
    "link": "http://www.city.kawasaki.jp/450/page/0000119159.html",
    "address": "中原区新丸子町964－3",
    "postcode": "211-0005",
    "phone": "044-948-7136"
  },
  {
    "name": "京進のほいくえんHOPPAパークシティ武蔵小杉",
    "link": "http://www.city.kawasaki.jp/450/page/0000108786.html",
    "address": "中原区小杉町二丁目228番地1　ザ・ガーデンタワーズウエスト2階",
    "postcode": "211-0063",
    "phone": "044-712-5071"
  },
  {
    "name": "にじいろ保育園武蔵中原",
    "link": "http://www.city.kawasaki.jp/450/page/0000089841.html",
    "address": "中原区上小田中6－18－4",
    "postcode": "211-0053",
    "phone": "044-789-5995"
  },
  {
    "name": "マミークラブ小杉",
    "link": "http://www.city.kawasaki.jp/450/page/0000109061.html",
    "address": "中原区新丸子744-2　ソレイユ倶楽部1",
    "postcode": "211-0005",
    "phone": "044-733-7743"
  },
  {
    "name": "ウパウパハウスノア",
    "link": "http://www.city.kawasaki.jp/450/page/0000108770.html",
    "address": "中原区下小田中1-13-14",
    "postcode": "211-0041",
    "phone": "044-750-0520"
  },
  {
    "name": "武蔵小杉コスモス保育園",
    "link": "http://www.city.kawasaki.jp/450/page/0000089029.html",
    "address": "中原区今井南町7-54",
    "postcode": "211-0064",
    "phone": "044-738-2886"
  },
  {
    "name": "レイモンド中原保育園",
    "link": "http://www.city.kawasaki.jp/450/page/0000109772.html",
    "address": "川崎市中原区井田杉山町7-33",
    "postcode": "211-0036",
    "phone": "044-750-9912"
  },
  {
    "name": "天才キッズクラブ楽学館武蔵小杉園",
    "link": "http://www.city.kawasaki.jp/450/page/0000108993.html",
    "address": "中原区下小田中1-13-14",
    "postcode": "211-0041",
    "phone": "044-982-9638"
  },
  {
    "name": "神地保育園",
    "link": "http://www.city.kawasaki.jp/450/page/0000109313.html",
    "address": "川崎市中原区上小田中6-34-36",
    "postcode": "211-0053",
    "phone": "044-948-4854"
  },
  {
    "name": "ピュアリー小杉御殿町保育園",
    "link": "http://www.city.kawasaki.jp/450/page/0000108781.html",
    "address": "中原区小杉御殿町2-119-14",
    "postcode": "211-0068",
    "phone": "044-819-5707"
  },
  {
    "name": "そらいろ今井西保育園",
    "link": "http://www.city.kawasaki.jp/450/page/0000108777.html",
    "address": "中原区今井西町3-15",
    "postcode": "211-0066",
    "phone": "044-455-7100"
  },
  {
    "name": "しらかし保育園",
    "link": "http://www.city.kawasaki.jp/450/page/0000108773.html",
    "address": "中原区上丸子山王町1-1454",
    "postcode": "211-0002",
    "phone": "044-982-3433"
  },
  {
    "name": "しらゆり新城保育園",
    "link": "http://www.city.kawasaki.jp/450/page/0000107579.html",
    "address": "神奈川県川崎市中原区新城中町1－18",
    "postcode": "211-0043",
    "phone": "044-948-9610"
  },
  {
    "name": "元住吉おおぞら保育園",
    "link": "http://www.city.kawasaki.jp/450/page/0000108730.html",
    "address": "神奈川県川崎市木月祇園町9-24",
    "postcode": "211-0033",
    "phone": "044-433-0005"
  },
  {
    "name": "小学館アカデミーしんまるこ保育園",
    "link": "http://www.city.kawasaki.jp/450/page/0000050732.html",
    "address": "中原区新丸子東2-902-1",
    "postcode": "211-0004",
    "phone": "044-431-3261"
  },
  {
    "name": "ベネッセ市ノ坪保育園",
    "link": "http://www.city.kawasaki.jp/450/page/0000048963.html",
    "address": "中原区市ノ坪375",
    "postcode": "211-0016",
    "phone": "044-431-3185"
  },
  {
    "name": "まめの木保育園",
    "link": "http://www.city.kawasaki.jp/450/page/0000070937.html",
    "address": "中原区小杉町3-1501　セントア武蔵小杉アA棟3",
    "postcode": "281-0565",
    "phone": "044-281-0565"
  },
  {
    "name": "わらべうた武蔵小杉保育園",
    "link": "http://www.city.kawasaki.jp/450/page/0000079413.html",
    "address": "中原区新丸子東2-924-65",
    "postcode": "211-0004",
    "phone": "044-948-9252"
  },
  {
    "name": "第2武蔵小杉コスモス保育園",
    "link": "http://www.city.kawasaki.jp/450/page/0000098209.html",
    "address": "中原区今井仲町2-32",
    "postcode": "211-0065",
    "phone": "044-281-0661"
  },
  {
    "name": "まんまる保育園",
    "link": "http://www.city.kawasaki.jp/450/page/0000050737.html",
    "address": "中原区上小田中1-29-20",
    "postcode": "211-0053",
    "phone": "044-920-9700"
  },
  {
    "name": "みやうち保育園",
    "link": "http://www.city.kawasaki.jp/450/page/0000070861.html",
    "address": "中原区宮内4-13-14",
    "postcode": "211-0051",
    "phone": "044-982-3266"
  },
  {
    "name": "しらゆり中原保育園",
    "link": "http://www.city.kawasaki.jp/450/page/0000068968.html",
    "address": "川崎市中原区上小田中6-51-7 プランドール1～3階",
    "postcode": "211-0053",
    "phone": "044-982-9045"
  },
  {
    "name": "茶々むさしこすぎ保育園",
    "link": "http://www.city.kawasaki.jp/450/page/0000078306.html",
    "address": "中原区今井仲町5-25",
    "postcode": "211-0065",
    "phone": "044-739-8001"
  },
  {
    "name": "心花保育園",
    "link": "http://www.city.kawasaki.jp/450/page/0000079044.html",
    "address": "中原区木月祇園町15-6",
    "postcode": "211-0033",
    "phone": "044-433-0587"
  },
  {
    "name": "武蔵小杉おおぞら保育園",
    "link": "http://www.city.kawasaki.jp/450/page/0000089128.html",
    "address": "中原区今井西町11-12",
    "postcode": "211-0066",
    "phone": "044-299-8889"
  },
  {
    "name": "しらゆり宮内保育園",
    "link": "http://www.city.kawasaki.jp/450/page/0000089035.html",
    "address": "中原区宮内1-4-55",
    "postcode": "211-0051",
    "phone": "044-741-1050"
  },
  {
    "name": "エクセレント武蔵新城保育園",
    "link": "http://www.city.kawasaki.jp/450/page/0000089027.html",
    "address": "中原区新城1-10-17　JAセレサ川崎4階",
    "postcode": "211-0044",
    "phone": "044-755-5106"
  },
  {
    "name": "すこやか小杉保育園",
    "link": "http://www.city.kawasaki.jp/450/page/0000099416.html",
    "address": "川崎市中原区新丸子東3－447－2",
    "postcode": "211-0004",
    "phone": "044-750-9925"
  },
  {
    "name": "木月ほほえみ保育園",
    "link": "http://www.city.kawasaki.jp/450/page/0000099123.html",
    "address": "中原区木月4-42-14",
    "postcode": "211-0025",
    "phone": "044-948-4483"
  },
  {
    "name": "レイモンド元住吉保育園",
    "link": "http://www.city.kawasaki.jp/450/page/0000098248.html",
    "address": "神奈川県川崎市中原区木月住吉町2-24",
    "postcode": "211-0021",
    "phone": "044-789-5695"
  },
  {
    "name": "ひまわりほいくえん",
    "link": "http://www.city.kawasaki.jp/450/page/0000098647.html",
    "address": "神奈川県川崎市中原区上小田中6丁目45-54",
    "postcode": "211-0053",
    "phone": "044-711-6560"
  },
  {
    "name": "あいみー平間保育園",
    "link": "http://www.city.kawasaki.jp/450/page/0000098770.html",
    "address": "川崎市中原区北谷町21-2",
    "postcode": "211-0015",
    "phone": "044-211-6941"
  },
  {
    "name": "武蔵小杉雲母保育園",
    "link": "http://www.city.kawasaki.jp/450/page/0000098336.html",
    "address": "川崎市中原区市ノ坪363-7",
    "postcode": "211-0016",
    "phone": "044-455-8084"
  },
  {
    "name": "グローバルキッズ武蔵小杉園",
    "link": "http://www.city.kawasaki.jp/450/page/0000071121.html",
    "address": "中原区新丸子東3-1135-1　グランツリー武蔵小杉3F",
    "postcode": "211-0004",
    "phone": "044-433-7007"
  },
  {
    "name": "みらいく木月園",
    "link": "http://www.city.kawasaki.jp/450/page/0000098660.html",
    "address": "神奈川県川崎市中原区木月4-28-2",
    "postcode": "211-0025",
    "phone": "044-750-7191"
  },
  {
    "name": "ニチイキッズひらま保育園",
    "link": "http://www.city.kawasaki.jp/450/page/0000098293.html",
    "address": "神奈川県川崎市中原区北谷町24-3",
    "postcode": "211-0015",
    "phone": "044-542-7577"
  },
  {
    "name": "アスク今井南保育園",
    "link": "http://www.city.kawasaki.jp/450/page/0000093300.html",
    "address": "中原区今井南町9-35",
    "postcode": "211-0064",
    "phone": "044-738-0370"
  },
  {
    "name": "ぶどうの実平間園",
    "link": "http://www.city.kawasaki.jp/450/page/0000078262.html",
    "address": "中原区北谷町693-10",
    "postcode": "211-0015",
    "phone": "044-540-3355"
  },
  {
    "name": "アイン武蔵小杉保育園",
    "link": "http://www.city.kawasaki.jp/450/page/0000061386.html",
    "address": "中原区中丸子1246-6",
    "postcode": "211-0012",
    "phone": "044-434-0551"
  },
  {
    "name": "ポポラー川崎武蔵小杉園",
    "link": "http://www.city.kawasaki.jp/450/page/0000079231.html",
    "address": "中原区市ノ坪449番地3　シティタワー武蔵小杉2階",
    "postcode": "211-0016",
    "phone": "044-431-8030"
  },
  {
    "name": "ポピンズナーサリースクール武蔵小杉",
    "link": "http://www.city.kawasaki.jp/450/page/0000050750.html",
    "address": "中原区小杉町3-472",
    "postcode": "211-0063",
    "phone": "044-738-2127"
  },
  {
    "name": "アイン武蔵小杉北保育園",
    "link": "http://www.city.kawasaki.jp/450/page/0000070841.html",
    "address": "中原区小杉町2-307-7",
    "postcode": "211-0063",
    "phone": "044-722-5588"
  },
  {
    "name": "アスク元住吉南保育園",
    "link": "http://www.city.kawasaki.jp/450/page/0000050746.html",
    "address": "中原区木月4-1-30",
    "postcode": "211-0025",
    "phone": "044-430-3230"
  }
]