[
  {
    "name": "大島保育園",
    "link": "http://www.city.kawasaki.jp/450/page/0000031349.html",
    "address": "川崎区大島4-17-2（川崎区保育・子育て総合支援センター内）",
    "postcode": "210-0834",
    "phone": "044-222-7252"
  },
  {
    "name": "川崎乳児保育所",
    "link": "http://www.city.kawasaki.jp/450/page/0000031390.html",
    "address": "川崎区本町1-1-1",
    "postcode": "210-0001",
    "phone": "044-222-2171"
  },
  {
    "name": "夜間保育所あいいく",
    "link": "http://www.city.kawasaki.jp/450/page/0000031402.html",
    "address": "川崎区本町1-1-1",
    "postcode": "210-0001",
    "phone": "044-222-2171"
  },
  {
    "name": "アスク川崎東口保育園",
    "link": "http://www.city.kawasaki.jp/450/page/0000031413.html",
    "address": "川崎区小川町13-9",
    "postcode": "210-0023",
    "phone": "044-233-5030"
  },
  {
    "name": "のぞみ保育園",
    "link": "http://www.city.kawasaki.jp/450/page/0000031431.html",
    "address": "川崎区富士見1-6-10",
    "postcode": "210-0011",
    "phone": "044-223-2229"
  },
  {
    "name": "ゆめいく日進町保育園",
    "link": "http://www.city.kawasaki.jp/450/page/0000031441.html",
    "address": "川崎区日進町20-3",
    "postcode": "210-0024",
    "phone": "044-221-7035"
  },
  {
    "name": "あすいく保育園",
    "link": "http://www.city.kawasaki.jp/450/page/0000031525.html",
    "address": "川崎区日進町22-14",
    "postcode": "210-0024",
    "phone": "044-221-1015"
  },
  {
    "name": "京町いづみ保育園",
    "link": "http://www.city.kawasaki.jp/450/page/0000031537.html",
    "address": "川崎区京町3-26-1",
    "postcode": "210-0848",
    "phone": "044-322-3811"
  },
  {
    "name": "川崎おおぞら保育園",
    "link": "http://www.city.kawasaki.jp/450/page/0000031545.html",
    "address": "川崎区小川町11-9　大三コーポ1階",
    "postcode": "210-0023",
    "phone": "044-200-9481"
  },
  {
    "name": "レイモンド川崎保育園",
    "link": "http://www.city.kawasaki.jp/450/page/0000031552.html",
    "address": "川崎区東田町8　パレールビル3階",
    "postcode": "210-0005",
    "phone": "044-201-1313"
  },
  {
    "name": "川崎もりのこ保育園",
    "link": "http://www.city.kawasaki.jp/450/page/0000031556.html",
    "address": "川崎区日進町1-68 サンスクエア川崎8号棟 2階",
    "postcode": "210-0024",
    "phone": "044-246-1815"
  },
  {
    "name": "藤崎保育園",
    "link": "http://www.city.kawasaki.jp/450/page/0000031573.html",
    "address": "川崎区藤崎1-7-1",
    "postcode": "210-0804",
    "phone": "044-211-1306"
  },
  {
    "name": "大師保育園",
    "link": "http://www.city.kawasaki.jp/450/page/0000031637.html",
    "address": "川崎区出来野1-17",
    "postcode": "210-0825",
    "phone": "044-266-7939"
  },
  {
    "name": "かわなかじま保育園",
    "link": "http://www.city.kawasaki.jp/450/page/0000031642.html",
    "address": "川崎区藤崎2-19-2",
    "postcode": "210-0804",
    "phone": "044-246-7510"
  },
  {
    "name": "東門前保育園",
    "link": "http://www.city.kawasaki.jp/450/page/0000031652.html",
    "address": "川崎区東門前1-8-2",
    "postcode": "210-0812",
    "phone": "044-266-8984"
  },
  {
    "name": "中瀬新生保育園",
    "link": "http://www.city.kawasaki.jp/450/page/0000031660.html",
    "address": "川崎区中瀬3-20-16",
    "postcode": "210-0818",
    "phone": "044-280-1017"
  },
  {
    "name": "よつば保育園",
    "link": "http://www.city.kawasaki.jp/450/page/0000031670.html",
    "address": "川崎区四谷上町14-8",
    "postcode": "210-0828",
    "phone": "044-288-4289"
  },
  {
    "name": "アスク東門前保育園",
    "link": "http://www.city.kawasaki.jp/450/page/0000031682.html",
    "address": "川崎区大師本町9-11-3F",
    "postcode": "210-0817",
    "phone": "044-270-3412"
  },
  {
    "name": "東小田保育園",
    "link": "http://www.city.kawasaki.jp/450/page/0000031702.html",
    "address": "川崎区小田5-14-1",
    "postcode": "210-0846",
    "phone": "044-355-6620"
  },
  {
    "name": "聖美保育園",
    "link": "http://www.city.kawasaki.jp/450/page/0000031708.html",
    "address": "川崎区桜本2-41-11",
    "postcode": "210-0833",
    "phone": "044-266-7227"
  },
  {
    "name": "あいせん保育園",
    "link": "http://www.city.kawasaki.jp/450/page/0000031714.html",
    "address": "川崎区浜町2-22-16",
    "postcode": "210-0851",
    "phone": "044-344-5365"
  },
  {
    "name": "桜本保育園",
    "link": "http://www.city.kawasaki.jp/450/page/0000031718.html",
    "address": "川崎区桜本1-9-6",
    "postcode": "210-0833",
    "phone": "044-288-2545"
  },
  {
    "name": "西大島ルーテル保育園",
    "link": "http://www.city.kawasaki.jp/450/page/0000031727.html",
    "address": "川崎区大島1-24-12",
    "postcode": "210-0834",
    "phone": "044-280-6222"
  },
  {
    "name": "ランゲージ・ハウスNakajima保育園",
    "link": "http://www.city.kawasaki.jp/450/page/0000119007.html",
    "address": "川崎区中島2丁目1番8号",
    "postcode": "210-0806",
    "phone": "044-201-9282"
  },
  {
    "name": "Nest川崎大師保育園",
    "link": "http://www.city.kawasaki.jp/450/page/0000118749.html",
    "address": "川崎区大師駅前1-2-15",
    "postcode": "210-0802",
    "phone": "044-266-1220"
  },
  {
    "name": "大師駅前ひよこ保育園",
    "link": "http://www.city.kawasaki.jp/450/page/0000064758.html",
    "address": "川崎区川中島 1丁目21－4",
    "postcode": "210-0803",
    "phone": "044-266-1450"
  },
  {
    "name": "マジオたんぽぽ保育園観音",
    "link": "http://www.city.kawasaki.jp/450/page/0000118623.html",
    "address": "川崎区観音1丁目8番20号",
    "postcode": "210-0831",
    "phone": "044-589-4402"
  },
  {
    "name": "ルミナ保育園川崎",
    "link": "http://www.city.kawasaki.jp/450/page/0000109872.html",
    "address": "川崎区駅前本町22-9",
    "postcode": "210-0007",
    "phone": "044-201-8915"
  },
  {
    "name": "だるま国際ころころ園",
    "link": "http://www.city.kawasaki.jp/450/page/0000118606.html",
    "address": "川崎区大師町3-7",
    "postcode": "210-0816",
    "phone": "044-288-0116"
  },
  {
    "name": "川崎コスモス保育園",
    "link": "http://www.city.kawasaki.jp/450/page/0000118268.html",
    "address": "川崎区渡田東町7-9",
    "postcode": "210-0842",
    "phone": "044-276-9956"
  },
  {
    "name": "小田さくら保育園",
    "link": "http://www.city.kawasaki.jp/450/page/0000100116.html",
    "address": "神奈川県川崎市川崎区小田3-17-3",
    "postcode": "210-0846",
    "phone": "044-280-7922"
  },
  {
    "name": "出来野ルーテル保育園",
    "link": "http://www.city.kawasaki.jp/450/page/0000050740.html",
    "address": "川崎区出来野6-7",
    "postcode": "210-0825",
    "phone": "044-201-1146"
  },
  {
    "name": "つめくさ保育園",
    "link": "http://www.city.kawasaki.jp/450/page/0000109686.html",
    "address": "川崎区昭和1-5-8",
    "postcode": "210-0813",
    "phone": "044-201-9789"
  },
  {
    "name": "ベネッセ川崎新町保育園",
    "link": "http://www.city.kawasaki.jp/450/page/0000068921.html",
    "address": "川崎区小田栄2-3-2",
    "postcode": "210-0843",
    "phone": "044-329-1281"
  },
  {
    "name": "京急キッズランド京急川崎保育園",
    "link": "http://www.city.kawasaki.jp/450/page/0000080818.html",
    "address": "川崎区砂子1－3－1　京急ショッピングプラザウィング川崎5階",
    "postcode": "210-0006",
    "phone": "044-245-5802"
  },
  {
    "name": "川崎ふたば保育園",
    "link": "http://www.city.kawasaki.jp/450/page/0000081128.html",
    "address": "川崎区大師河原2－2－2",
    "postcode": "210-0811",
    "phone": "044-200-4113"
  },
  {
    "name": "京進のほいくえんHOPPA大島五丁目",
    "link": "http://www.city.kawasaki.jp/450/page/0000089358.html",
    "address": "川崎市川崎区大島5丁目11番13号ラポルテ511　2階",
    "postcode": "210-0834",
    "phone": "044-589-8704"
  },
  {
    "name": "パピー保育園",
    "link": "http://www.city.kawasaki.jp/450/page/0000079127.html",
    "address": "神奈川県川崎市川崎区小田2-2-3",
    "postcode": "210-0846",
    "phone": "044-201-7160"
  },
  {
    "name": "保育園川崎ベアーズ",
    "link": "http://www.city.kawasaki.jp/450/page/0000099902.html",
    "address": "神奈川県川崎市川崎区大島上町22-12",
    "postcode": "210-0836",
    "phone": "044-589-7545"
  },
  {
    "name": "わたりだ保育園",
    "link": "http://www.city.kawasaki.jp/450/page/0000090936.html",
    "address": "神奈川県川崎市川崎区鋼管通1-11-4",
    "postcode": "210-0852",
    "phone": "044-223-8257"
  },
  {
    "name": "かんのん町保育園",
    "link": "http://www.city.kawasaki.jp/450/page/0000060551.html",
    "address": "川崎市川崎区観音1-10-3",
    "postcode": "210-0831",
    "phone": "044-280-6226"
  },
  {
    "name": "だいしの里保育園",
    "link": "http://www.city.kawasaki.jp/450/page/0000050744.html",
    "address": "川崎区日ノ出1-16-11",
    "postcode": "210-0824",
    "phone": "044-589-5281"
  },
  {
    "name": "京急キッズランド港町駅前保育園",
    "link": "http://www.city.kawasaki.jp/450/page/0000048905.html",
    "address": "川崎区港町5-4",
    "postcode": "210-0807",
    "phone": "044-245-0231"
  },
  {
    "name": "若草保育園　京町",
    "link": "http://www.city.kawasaki.jp/450/page/0000080834.html",
    "address": "川崎区渡田山王町20−35 2階",
    "postcode": "210-0845",
    "phone": "044-329-1180"
  },
  {
    "name": "キディ鈴木町・川崎",
    "link": "http://www.city.kawasaki.jp/450/page/0000069024.html",
    "address": "川崎区鈴木町3-2",
    "postcode": "210-0801",
    "phone": "044-246-0400"
  },
  {
    "name": "境町パイナップル保育園",
    "link": "http://www.city.kawasaki.jp/450/page/0000081290.html",
    "address": "川崎市川崎区境町11番9",
    "postcode": "210-0838",
    "phone": "044-222-8686"
  },
  {
    "name": "新町しほかぜ保育園",
    "link": "http://www.city.kawasaki.jp/450/page/0000079117.html",
    "address": "川崎区渡田4-9-4",
    "postcode": "210-0837",
    "phone": "044-223-8818"
  },
  {
    "name": "ココファン・ナーサリー川崎大師",
    "link": "http://www.city.kawasaki.jp/450/page/0000079487.html",
    "address": "川崎区中瀬3-14-3",
    "postcode": "210-0818",
    "phone": "044-299-2751"
  },
  {
    "name": "古川保育園",
    "link": "http://www.city.kawasaki.jp/450/page/0000031686.html",
    "address": "幸区塚越2丁目159-28",
    "postcode": "212-0024",
    "phone": "044-522-6301"
  },
  {
    "name": "北加瀬保育園",
    "link": "http://www.city.kawasaki.jp/450/page/0000031701.html",
    "address": "幸区北加瀬3-19-1",
    "postcode": "212-0057",
    "phone": "044-411-3047"
  },
  {
    "name": "河原町保育園",
    "link": "http://www.city.kawasaki.jp/450/page/0000031733.html",
    "address": "幸区河原町1",
    "postcode": "212-0007",
    "phone": "044-522-6650"
  },
  {
    "name": "夢見ヶ崎保育園",
    "link": "http://www.city.kawasaki.jp/450/page/0000031732.html",
    "address": "幸区南加瀬3-4-8",
    "postcode": "212-0055",
    "phone": "044-588-4130"
  },
  {
    "name": "YMCAかわさき保育園",
    "link": "http://www.city.kawasaki.jp/450/page/0000031743.html",
    "address": "幸区大宮町26-3　アーベインビオ川崎3号棟102",
    "postcode": "212-0014",
    "phone": "044-520-1825"
  },
  {
    "name": "アスク川崎西口保育園",
    "link": "http://www.city.kawasaki.jp/450/page/0000031734.html",
    "address": "幸区大宮町1310　ミューザ川崎1階",
    "postcode": "212-0014",
    "phone": "044-520-8025"
  },
  {
    "name": "どりーむ保育園",
    "link": "http://www.city.kawasaki.jp/450/page/0000031720.html",
    "address": "幸区北加瀬1-31-5",
    "postcode": "212-0057",
    "phone": "044-580-3020"
  },
  {
    "name": "保育園フェリチッタ",
    "link": "http://www.city.kawasaki.jp/450/page/0000031712.html",
    "address": "幸区南幸町2-76",
    "postcode": "212-0016",
    "phone": "044-544-5033"
  },
  {
    "name": "つくし保育園",
    "link": "http://www.city.kawasaki.jp/450/page/0000031703.html",
    "address": "幸区戸手本町2-420-1",
    "postcode": "212-0023",
    "phone": "044-223-7531"
  },
  {
    "name": "にじいろ保育園新川崎",
    "link": "http://www.city.kawasaki.jp/450/page/0000031690.html",
    "address": "幸区小倉1-4-24",
    "postcode": "212-0054",
    "phone": "044-599-6790"
  },
  {
    "name": "ふくじゅ保育園",
    "link": "http://www.city.kawasaki.jp/450/page/0000031671.html",
    "address": "幸区鹿島田1-21-8",
    "postcode": "212-0058",
    "phone": "044-201-8080"
  },
  {
    "name": "新川崎もりのこ保育園",
    "link": "http://www.city.kawasaki.jp/450/page/0000031584.html",
    "address": "幸区新川崎3-1",
    "postcode": "212-0032",
    "phone": "044-599-3808"
  },
  {
    "name": "小学館アカデミー南さいわい町保育園",
    "link": "http://www.city.kawasaki.jp/450/page/0000031569.html",
    "address": "幸区南幸町3-97　リバーセンタービル2階",
    "postcode": "212-0016",
    "phone": "044-542-4151"
  },
  {
    "name": "鹿島田もりのこ保育園",
    "link": "http://www.city.kawasaki.jp/450/page/0000031500.html",
    "address": "幸区下平間290",
    "postcode": "212-0053",
    "phone": "044-522-3565"
  },
  {
    "name": "どりーむ東小倉保育園",
    "link": "http://www.city.kawasaki.jp/450/page/0000031494.html",
    "address": "幸区東小倉2-36",
    "postcode": "212-0033",
    "phone": "044-542-7885"
  },
  {
    "name": "かわの風保育園",
    "link": "http://www.city.kawasaki.jp/450/page/0000031483.html",
    "address": "幸区戸手2-12-10",
    "postcode": "212-0005",
    "phone": "044-542-8133"
  },
  {
    "name": "ゲートタワーローズ保育園",
    "link": "http://www.city.kawasaki.jp/450/page/0000036108.html",
    "address": "幸区大宮町31-1　川崎ゲートタワー1階",
    "postcode": "212-0014",
    "phone": "044-589-3552"
  },
  {
    "name": "おぐら保育園",
    "link": "http://www.city.kawasaki.jp/450/page/0000109474.html",
    "address": "神奈川県川崎市幸区小倉4-6-23",
    "postcode": "212-0054",
    "phone": "044-223-8012"
  },
  {
    "name": "みなみかせ保育園",
    "link": "http://www.city.kawasaki.jp/450/page/0000118922.html",
    "address": "幸区南加瀬3-12-8",
    "postcode": "212-0055",
    "phone": "044-201-8042"
  },
  {
    "name": "まなびの森保育園矢向",
    "link": "http://www.city.kawasaki.jp/450/page/0000089119.html",
    "address": "幸区小倉3-1-15",
    "postcode": "212-0054",
    "phone": "044-588-0180"
  },
  {
    "name": "新川崎えほんの森保育園",
    "link": "http://www.city.kawasaki.jp/450/page/0000118816.html",
    "address": "幸区北加瀬1-10-1",
    "postcode": "212-0057",
    "phone": "044-280-9450"
  },
  {
    "name": "みなみがわら保育園",
    "link": "http://www.city.kawasaki.jp/450/page/0000118865.html",
    "address": "幸区河原町1-77",
    "postcode": "212-0007",
    "phone": "044-396-3171"
  },
  {
    "name": "小倉はなかご保育園",
    "link": "http://www.city.kawasaki.jp/450/page/0000059172.html",
    "address": "川崎市幸区小倉4丁目15番8号",
    "postcode": "210-0054",
    "phone": "044-580-1001"
  },
  {
    "name": "キッズガーデン川崎幸町",
    "link": "http://www.city.kawasaki.jp/450/page/0000079025.html",
    "address": "幸区幸町2-593　モリファーストビル6階",
    "postcode": "215-0004",
    "phone": "044-589-6200"
  },
  {
    "name": "保育園アレッタ",
    "link": "http://www.city.kawasaki.jp/450/page/0000089050.html",
    "address": "幸区南幸町3-3",
    "postcode": "212-0016",
    "phone": "044-742-3550"
  },
  {
    "name": "あいみー南加瀬保育園",
    "link": "http://www.city.kawasaki.jp/450/page/0000089078.html",
    "address": "幸区南加瀬3－4－20",
    "postcode": "212-0055",
    "phone": "044-200-4266"
  },
  {
    "name": "ひよし保育園",
    "link": "http://www.city.kawasaki.jp/450/page/0000078437.html",
    "address": "幸区南加瀬2-9-20",
    "postcode": "212-0055",
    "phone": "044-588-3555"
  },
  {
    "name": "プレシャススターズ保育園小倉園",
    "link": "http://www.city.kawasaki.jp/450/page/0000088458.html",
    "address": "幸区小倉3-2-23　セレーヌサクラ1階",
    "postcode": "212-0054",
    "phone": "044-276-8805"
  },
  {
    "name": "マミー保育園新川崎",
    "link": "http://www.city.kawasaki.jp/450/page/0000078386.html",
    "address": "川崎市幸区新川崎5-2　3階",
    "postcode": "212-0032",
    "phone": "044-201-8985"
  },
  {
    "name": "Nest鹿島田保育園",
    "link": "http://www.city.kawasaki.jp/450/page/0000118479.html",
    "address": "幸区下平間326-8",
    "postcode": "212-0053",
    "phone": "044-542-6134"
  },
  {
    "name": "第2ひまわりほいくえん",
    "link": "http://www.city.kawasaki.jp/450/page/0000109468.html",
    "address": "神奈川県川崎市幸区北加瀬2-1-24",
    "postcode": "212-0057",
    "phone": "044-280-9500"
  },
  {
    "name": "にじいろ保育園鹿島田",
    "link": "http://www.city.kawasaki.jp/450/page/0000078288.html",
    "address": "神奈川県川崎市幸区鹿島田1-10-22",
    "postcode": "212-0058",
    "phone": "044-200-4615"
  },
  {
    "name": "にじいろ保育園塚越",
    "link": "http://www.city.kawasaki.jp/450/page/0000079391.html",
    "address": "塚越4－345－11",
    "postcode": "212-0024",
    "phone": "044-555-0553"
  },
  {
    "name": "マジオたんぽぽ保育園下平間",
    "link": "http://www.city.kawasaki.jp/450/page/0000097970.html",
    "address": "幸区下平間386-1",
    "postcode": "212-0053",
    "phone": "044-511-8000"
  },
  {
    "name": "保育園リエッタ",
    "link": "http://www.city.kawasaki.jp/450/page/0000079028.html",
    "address": "幸区南幸町2-9　ラゾーナサイドビル2・3階",
    "postcode": "212-0016",
    "phone": "044-541-9885"
  },
  {
    "name": "にじいろ保育園北加瀬",
    "link": "http://www.city.kawasaki.jp/450/page/0000099238.html",
    "address": "北加瀬2－11－4",
    "postcode": "212-0024",
    "phone": "044-589-6003"
  },
  {
    "name": "らいらっく幸保育園",
    "link": "http://www.city.kawasaki.jp/450/page/0000079001.html",
    "address": "幸区塚越2－220－37",
    "postcode": "-",
    "phone": "044-589-8601"
  },
  {
    "name": "日生夢見ヶ崎保育園ひびき",
    "link": "http://www.city.kawasaki.jp/450/page/0000060350.html",
    "address": "幸区南加瀬1－13－5",
    "postcode": "212-0055",
    "phone": "044-200-4612"
  },
  {
    "name": "日生鹿島田保育園ひびき",
    "link": "http://www.city.kawasaki.jp/450/page/0000060553.html",
    "address": "幸区下平間143－16",
    "postcode": "212-0053",
    "phone": "044-280-6121"
  },
  {
    "name": "わらべうた幸町保育園",
    "link": "http://www.city.kawasaki.jp/450/page/0000058869.html",
    "address": "川崎市幸区幸町1-749-2",
    "postcode": "212-0011",
    "phone": "044-511-1277"
  },
  {
    "name": "かわさき大宮町保育園",
    "link": "http://www.city.kawasaki.jp/450/page/0000078405.html",
    "address": "幸区大宮町9-1　ヴィルクレール川崎タワー1階",
    "postcode": "212-0014",
    "phone": "044-520-1070"
  },
  {
    "name": "小学館アカデミーしんかわさき保育園",
    "link": "http://www.city.kawasaki.jp/450/page/0000050734.html",
    "address": "幸区鹿島田1-1-3",
    "postcode": "212-0058",
    "phone": "044-542-3561"
  },
  {
    "name": "幸いづみ保育園",
    "link": "http://www.city.kawasaki.jp/450/page/0000078464.html",
    "address": "幸区南幸町3-149-3",
    "postcode": "-",
    "phone": "044-542-5696"
  },
  {
    "name": "小向さくら保育園",
    "link": "http://www.city.kawasaki.jp/450/page/0000078830.html",
    "address": "幸区小向西町3－52－3",
    "postcode": "-",
    "phone": "044-511-6555"
  },
  {
    "name": "らいらっく山吹保育園",
    "link": "http://www.city.kawasaki.jp/450/page/0000089025.html",
    "address": "幸区塚越1丁目60－160",
    "postcode": "212-0024",
    "phone": "044-223-8388"
  },
  {
    "name": "京進のほいくえんHOPPA南河原",
    "link": "http://www.city.kawasaki.jp/450/page/0000089297.html",
    "address": "幸区神明町2-29-6　ウイングルート1階",
    "postcode": "212-0022",
    "phone": "044-276-9507"
  },
  {
    "name": "新川崎・学びの保育園",
    "link": "http://www.city.kawasaki.jp/450/page/0000089080.html",
    "address": "幸区鹿島田1-6-5",
    "postcode": "212-0058",
    "phone": "044-201-8340"
  },
  {
    "name": "新川崎みらいのそら保育園",
    "link": "http://www.city.kawasaki.jp/450/page/0000089082.html",
    "address": "幸区北加瀬1－11－4",
    "postcode": "212-0057",
    "phone": "044-589-5588"
  },
  {
    "name": "SPACE　KID保育園",
    "link": "http://www.city.kawasaki.jp/450/page/0000097962.html",
    "address": "幸区下平間259-1",
    "postcode": "212-0053",
    "phone": "044-201-7751"
  },
  {
    "name": "キディ古市場保育園",
    "link": "http://www.city.kawasaki.jp/450/page/0000050731.html",
    "address": "幸区古市場2-97",
    "postcode": "212-0052",
    "phone": "044-542-1711"
  },
  {
    "name": "平間保育園",
    "link": "http://www.city.kawasaki.jp/450/page/0000031455.html",
    "address": "中原区上平間366",
    "postcode": "211-0013",
    "phone": "044-533-0116"
  },
  {
    "name": "平間乳児保育園",
    "link": "http://www.city.kawasaki.jp/450/page/0000031280.html",
    "address": "中原区上平間366",
    "postcode": "211-0013",
    "phone": "044-533-0117"
  },
  {
    "name": "中丸子保育園",
    "link": "http://www.city.kawasaki.jp/450/page/0000031267.html",
    "address": "中原区中丸子1155",
    "postcode": "211-0012",
    "phone": "044-411-5559"
  },
  {
    "name": "中原保育園",
    "link": "http://www.city.kawasaki.jp/450/page/0000031250.html",
    "address": "中原区小杉町3-245（仮園舎）",
    "postcode": "211-0063",
    "phone": "044-733-3835"
  },
  {
    "name": "下小田中保育園",
    "link": "http://www.city.kawasaki.jp/450/page/0000031235.html",
    "address": "中原区下小田中4-4-17",
    "postcode": "211-0041",
    "phone": "044-788-5890"
  },
  {
    "name": "西宮内保育園",
    "link": "http://www.city.kawasaki.jp/450/page/0000031032.html",
    "address": "中原区宮内1-21-27（仮園舎）",
    "postcode": "211-0051",
    "phone": "044-755-6266"
  },
  {
    "name": "さくらの木保育園",
    "link": "http://www.city.kawasaki.jp/450/page/0000030989.html",
    "address": "中原区下小田中1-11-1",
    "postcode": "211-0041",
    "phone": "044-766-6001"
  },
  {
    "name": "さくらの木乳児保育園",
    "link": "http://www.city.kawasaki.jp/450/page/0000030983.html",
    "address": "中原区下小田中1-11-1",
    "postcode": "211-0041",
    "phone": "044-751-9038"
  },
  {
    "name": "にじいろ保育園南平間",
    "link": "http://www.city.kawasaki.jp/450/page/0000030978.html",
    "address": "中原区上平間1183",
    "postcode": "211-0013",
    "phone": "044-511-0010"
  },
  {
    "name": "多摩保育園",
    "link": "http://www.city.kawasaki.jp/450/page/0000030957.html",
    "address": "中原区上丸子山王町2-1337",
    "postcode": "211-0002",
    "phone": "044-411-1122"
  },
  {
    "name": "新日本保育園",
    "link": "http://www.city.kawasaki.jp/450/page/0000030839.html",
    "address": "中原区木月伊勢町3-3",
    "postcode": "211-0032",
    "phone": "044-722-3203"
  },
  {
    "name": "長寿保育園",
    "link": "http://www.city.kawasaki.jp/450/page/0000030810.html",
    "address": "中原区井田中ノ町12-20",
    "postcode": "211-0034",
    "phone": "044-777-5403"
  },
  {
    "name": "木月保育園",
    "link": "http://www.city.kawasaki.jp/450/page/0000030797.html",
    "address": "中原区木月4-42-14",
    "postcode": "211-0025",
    "phone": "044-433-1958"
  },
  {
    "name": "井田保育園",
    "link": "http://www.city.kawasaki.jp/450/page/0000030779.html",
    "address": "中原区井田1-26-33",
    "postcode": "211-0035",
    "phone": "044-751-1637"
  },
  {
    "name": "すみれ保育園",
    "link": "http://www.city.kawasaki.jp/450/page/0000030762.html",
    "address": "中原区木月住吉町1-12",
    "postcode": "211-0021",
    "phone": "044-430-5544"
  },
  {
    "name": "ももの里保育園",
    "link": "http://www.city.kawasaki.jp/450/page/0000030738.html",
    "address": "中原区宮内2-26-40",
    "postcode": "211-0051",
    "phone": "044-753-2980"
  },
  {
    "name": "こすぎっこ保育園",
    "link": "http://www.city.kawasaki.jp/450/page/0000030718.html",
    "address": "中原区新丸子東2-901",
    "postcode": "211-0004",
    "phone": "044-411-6594"
  },
  {
    "name": "わおわお元住吉保育園",
    "link": "http://www.city.kawasaki.jp/450/page/0000030701.html",
    "address": "中原区木月2-17-1",
    "postcode": "211-0025",
    "phone": "044-431-1180"
  },
  {
    "name": "まるこ保育園",
    "link": "http://www.city.kawasaki.jp/450/page/0000030695.html",
    "address": "中原区新丸子町726-5　ソレイユ倶楽部2",
    "postcode": "211-0005",
    "phone": "044-733-8550"
  },
  {
    "name": "アスク上小田中保育園",
    "link": "http://www.city.kawasaki.jp/450/page/0000030680.html",
    "address": "中原区上小田中3-25-29",
    "postcode": "211-0053",
    "phone": "044-740-5520"
  },
  {
    "name": "ベネッセ武蔵小杉保育園",
    "link": "http://www.city.kawasaki.jp/450/page/0000030655.html",
    "address": "中原区新丸子東3-1100-12 パークシティ武蔵小杉ミッドスカイタワー3F",
    "postcode": "211-0004",
    "phone": "044-430-0203"
  },
  {
    "name": "茶々いまい保育園",
    "link": "http://www.city.kawasaki.jp/450/page/0000030648.html",
    "address": "中原区今井仲町5-31",
    "postcode": "211-0065",
    "phone": "044-739-8551"
  },
  {
    "name": "アスク新丸子保育園",
    "link": "http://www.city.kawasaki.jp/450/page/0000030637.html",
    "address": "中原区新丸子町718　1・2F",
    "postcode": "211-0005",
    "phone": "044-738-0081"
  },
  {
    "name": "たんぽぽのはら保育園",
    "link": "http://www.city.kawasaki.jp/450/page/0000030632.html",
    "address": "中原区市ノ坪223-9",
    "postcode": "211-0016",
    "phone": "044-430-0143"
  },
  {
    "name": "すみよしのはら保育園",
    "link": "http://www.city.kawasaki.jp/450/page/0000030618.html",
    "address": "中原区木月祇園町17-2",
    "postcode": "211-0025",
    "phone": "044-411-6311"
  },
  {
    "name": "アスク元住吉保育園",
    "link": "http://www.city.kawasaki.jp/450/page/0000030603.html",
    "address": "中原区木月3-8-19",
    "postcode": "211-0025",
    "phone": "044-430-5613"
  },
  {
    "name": "らいらっく保育園",
    "link": "http://www.city.kawasaki.jp/450/page/0000030599.html",
    "address": "中原区木月伊勢町6-1",
    "postcode": "211-0032",
    "phone": "044-872-9888"
  },
  {
    "name": "アスク下小田中保育園",
    "link": "http://www.city.kawasaki.jp/450/page/0000030569.html",
    "address": "中原区下小田中3-29-16",
    "postcode": "211-0041",
    "phone": "044-741-1230"
  },
  {
    "name": "アスク武蔵小杉保育園",
    "link": "http://www.city.kawasaki.jp/450/page/0000030546.html",
    "address": "中原区小杉町1-526-5",
    "postcode": "211-0063",
    "phone": "044-739-4750"
  },
  {
    "name": "せせらぎ保育園",
    "link": "http://www.city.kawasaki.jp/450/page/0000030450.html",
    "address": "中原区新城1-14-7",
    "postcode": "211-0044",
    "phone": "044-752-6892"
  },
  {
    "name": "新城もりのこ保育園",
    "link": "http://www.city.kawasaki.jp/450/page/0000030463.html",
    "address": "中原区新城1-15-13",
    "postcode": "211-0044",
    "phone": "044-798-7015"
  },
  {
    "name": "茶々なかまち保育園",
    "link": "http://www.city.kawasaki.jp/450/page/0000030487.html",
    "address": "中原区今井仲町2-28",
    "postcode": "211-0065",
    "phone": "044-738-0221"
  },
  {
    "name": "まなびの森保育園小杉",
    "link": "http://www.city.kawasaki.jp/450/page/0000030495.html",
    "address": "中原区新丸子東3-1241-4",
    "postcode": "211-0004",
    "phone": "044-422-5111"
  },
  {
    "name": "アスク平間保育園",
    "link": "http://www.city.kawasaki.jp/450/page/0000030501.html",
    "address": "中原区北谷町7　1・2階",
    "postcode": "211-0015",
    "phone": "044-542-6920"
  },
  {
    "name": "アスク向河原保育園",
    "link": "http://www.city.kawasaki.jp/450/page/0000030508.html",
    "address": "中原区中丸子364-1",
    "postcode": "211-0012",
    "phone": "044-431-3090"
  },
  {
    "name": "ベネッセ元住吉保育園",
    "link": "http://www.city.kawasaki.jp/450/page/0000030512.html",
    "address": "中原区木月3-35-20",
    "postcode": "211-0025",
    "phone": "044-431-3171"
  },
  {
    "name": "小学館アカデミーかりやど保育園",
    "link": "http://www.city.kawasaki.jp/450/page/0000030520.html",
    "address": "中原区苅宿3-6",
    "postcode": "211-0022",
    "phone": "044-430-0180"
  },
  {
    "name": "武蔵中原もりのこ保育園",
    "link": "http://www.city.kawasaki.jp/450/page/0000030524.html",
    "address": "中原区下小田中3-7-20",
    "postcode": "211-0041",
    "phone": "044-777-5666"
  },
  {
    "name": "小学館アカデミーむさししんじょう保育園",
    "link": "http://www.city.kawasaki.jp/450/page/0000030527.html",
    "address": "中原区上小田中2-35-44",
    "postcode": "211-0053",
    "phone": "044-753-2007"
  },
  {
    "name": "アートチャイルドケア武蔵中原",
    "link": "http://www.city.kawasaki.jp/450/page/0000030531.html",
    "address": "中原区下小田中1-22-11",
    "postcode": "211-0041",
    "phone": "044-750-2123"
  },
  {
    "name": "まなびの森保育園新城",
    "link": "http://www.city.kawasaki.jp/450/page/0000030537.html",
    "address": "中原区新城中町6-20",
    "postcode": "211-0043",
    "phone": "044-777-3322"
  },
  {
    "name": "社会福祉法人長幼会玉川保育園",
    "link": "http://www.city.kawasaki.jp/450/page/0000101160.html",
    "address": "川崎市中原区北谷町61番地",
    "postcode": "211-0015",
    "phone": "044-555-1778"
  },
  {
    "name": "社会福祉法人けいわ会上小田中保育園",
    "link": "http://www.city.kawasaki.jp/450/page/0000060581.html",
    "address": "中原区上小田中1－28－25",
    "postcode": "211-0053",
    "phone": "044-982-9215"
  },
  {
    "name": "ぶれあ保育園・武蔵中原第二",
    "link": "http://www.city.kawasaki.jp/450/page/0000119779.html",
    "address": "中原区上小田中5-9-16",
    "postcode": "211-0053",
    "phone": "044-982-1174"
  },
  {
    "name": "ぶれあ保育園・武蔵中原",
    "link": "http://www.city.kawasaki.jp/450/page/0000098654.html",
    "address": "中原区上小田中5-9-13",
    "postcode": "211-0053",
    "phone": "044-948-9634"
  },
  {
    "name": "こころむさしなかはら保育園",
    "link": "http://www.city.kawasaki.jp/450/page/0000119691.html",
    "address": "中原区小田中1丁目7-23",
    "postcode": "211-0041",
    "phone": "044-982-1350"
  },
  {
    "name": "マリー保育園元住吉",
    "link": "http://www.city.kawasaki.jp/450/page/0000119669.html",
    "address": "中原区西加瀬2-2",
    "postcode": "211-0024",
    "phone": "044-948-8760"
  },
  {
    "name": "エクセレント武蔵小杉保育園",
    "link": "http://www.city.kawasaki.jp/450/page/0000119366.html",
    "address": "中原区新城1-10-17　JAセレサ川崎4階",
    "postcode": "211-0044",
    "phone": "044-733-5106"
  },
  {
    "name": "まなびの森保育園武蔵中原",
    "link": "http://www.city.kawasaki.jp/450/page/0000050747.html",
    "address": "中原区下小田中6-15-13",
    "postcode": "211-0041",
    "phone": "044-740-0404"
  },
  {
    "name": "小杉もりのこ保育園",
    "link": "http://www.city.kawasaki.jp/450/page/0000079042.html",
    "address": "中原区市ノ坪386-4",
    "postcode": "211-0016",
    "phone": "044-411-5855"
  },
  {
    "name": "まなびの森保育園向河原",
    "link": "http://www.city.kawasaki.jp/450/page/0000070717.html",
    "address": "中原区中丸子324－1",
    "postcode": "211-0012",
    "phone": "044-434-3365"
  },
  {
    "name": "そらいろ武蔵小杉保育園",
    "link": "http://www.city.kawasaki.jp/450/page/0000118871.html",
    "address": "中原区上丸子山王町1丁目1390番地白井ビル1F",
    "postcode": "211-0002",
    "phone": "044-948-6344"
  },
  {
    "name": "明日葉保育園元住吉園",
    "link": "http://www.city.kawasaki.jp/450/page/0000078623.html",
    "address": "中原区木月祇園町6‐31",
    "postcode": "211-0033",
    "phone": "044-982-3102"
  },
  {
    "name": "にじいろ保育園新丸子",
    "link": "http://www.city.kawasaki.jp/450/page/0000119159.html",
    "address": "中原区新丸子町964－3",
    "postcode": "211-0005",
    "phone": "044-948-7136"
  },
  {
    "name": "京進のほいくえんHOPPAパークシティ武蔵小杉",
    "link": "http://www.city.kawasaki.jp/450/page/0000108786.html",
    "address": "中原区小杉町二丁目228番地1　ザ・ガーデンタワーズウエスト2階",
    "postcode": "211-0063",
    "phone": "044-712-5071"
  },
  {
    "name": "にじいろ保育園武蔵中原",
    "link": "http://www.city.kawasaki.jp/450/page/0000089841.html",
    "address": "中原区上小田中6－18－4",
    "postcode": "211-0053",
    "phone": "044-789-5995"
  },
  {
    "name": "マミークラブ小杉",
    "link": "http://www.city.kawasaki.jp/450/page/0000109061.html",
    "address": "中原区新丸子744-2　ソレイユ倶楽部1",
    "postcode": "211-0005",
    "phone": "044-733-7743"
  },
  {
    "name": "ウパウパハウスノア",
    "link": "http://www.city.kawasaki.jp/450/page/0000108770.html",
    "address": "中原区下小田中1-13-14",
    "postcode": "211-0041",
    "phone": "044-750-0520"
  },
  {
    "name": "武蔵小杉コスモス保育園",
    "link": "http://www.city.kawasaki.jp/450/page/0000089029.html",
    "address": "中原区今井南町7-54",
    "postcode": "211-0064",
    "phone": "044-738-2886"
  },
  {
    "name": "レイモンド中原保育園",
    "link": "http://www.city.kawasaki.jp/450/page/0000109772.html",
    "address": "川崎市中原区井田杉山町7-33",
    "postcode": "211-0036",
    "phone": "044-750-9912"
  },
  {
    "name": "天才キッズクラブ楽学館武蔵小杉園",
    "link": "http://www.city.kawasaki.jp/450/page/0000108993.html",
    "address": "中原区下小田中1-13-14",
    "postcode": "211-0041",
    "phone": "044-982-9638"
  },
  {
    "name": "神地保育園",
    "link": "http://www.city.kawasaki.jp/450/page/0000109313.html",
    "address": "川崎市中原区上小田中6-34-36",
    "postcode": "211-0053",
    "phone": "044-948-4854"
  },
  {
    "name": "ピュアリー小杉御殿町保育園",
    "link": "http://www.city.kawasaki.jp/450/page/0000108781.html",
    "address": "中原区小杉御殿町2-119-14",
    "postcode": "211-0068",
    "phone": "044-819-5707"
  },
  {
    "name": "そらいろ今井西保育園",
    "link": "http://www.city.kawasaki.jp/450/page/0000108777.html",
    "address": "中原区今井西町3-15",
    "postcode": "211-0066",
    "phone": "044-455-7100"
  },
  {
    "name": "しらかし保育園",
    "link": "http://www.city.kawasaki.jp/450/page/0000108773.html",
    "address": "中原区上丸子山王町1-1454",
    "postcode": "211-0002",
    "phone": "044-982-3433"
  },
  {
    "name": "しらゆり新城保育園",
    "link": "http://www.city.kawasaki.jp/450/page/0000107579.html",
    "address": "神奈川県川崎市中原区新城中町1－18",
    "postcode": "211-0043",
    "phone": "044-948-9610"
  },
  {
    "name": "元住吉おおぞら保育園",
    "link": "http://www.city.kawasaki.jp/450/page/0000108730.html",
    "address": "神奈川県川崎市木月祇園町9-24",
    "postcode": "211-0033",
    "phone": "044-433-0005"
  },
  {
    "name": "小学館アカデミーしんまるこ保育園",
    "link": "http://www.city.kawasaki.jp/450/page/0000050732.html",
    "address": "中原区新丸子東2-902-1",
    "postcode": "211-0004",
    "phone": "044-431-3261"
  },
  {
    "name": "ベネッセ市ノ坪保育園",
    "link": "http://www.city.kawasaki.jp/450/page/0000048963.html",
    "address": "中原区市ノ坪375",
    "postcode": "211-0016",
    "phone": "044-431-3185"
  },
  {
    "name": "まめの木保育園",
    "link": "http://www.city.kawasaki.jp/450/page/0000070937.html",
    "address": "中原区小杉町3-1501　セントア武蔵小杉アA棟3",
    "postcode": "281-0565",
    "phone": "044-281-0565"
  },
  {
    "name": "わらべうた武蔵小杉保育園",
    "link": "http://www.city.kawasaki.jp/450/page/0000079413.html",
    "address": "中原区新丸子東2-924-65",
    "postcode": "211-0004",
    "phone": "044-948-9252"
  },
  {
    "name": "第2武蔵小杉コスモス保育園",
    "link": "http://www.city.kawasaki.jp/450/page/0000098209.html",
    "address": "中原区今井仲町2-32",
    "postcode": "211-0065",
    "phone": "044-281-0661"
  },
  {
    "name": "まんまる保育園",
    "link": "http://www.city.kawasaki.jp/450/page/0000050737.html",
    "address": "中原区上小田中1-29-20",
    "postcode": "211-0053",
    "phone": "044-920-9700"
  },
  {
    "name": "みやうち保育園",
    "link": "http://www.city.kawasaki.jp/450/page/0000070861.html",
    "address": "中原区宮内4-13-14",
    "postcode": "211-0051",
    "phone": "044-982-3266"
  },
  {
    "name": "しらゆり中原保育園",
    "link": "http://www.city.kawasaki.jp/450/page/0000068968.html",
    "address": "川崎市中原区上小田中6-51-7 プランドール1～3階",
    "postcode": "211-0053",
    "phone": "044-982-9045"
  },
  {
    "name": "茶々むさしこすぎ保育園",
    "link": "http://www.city.kawasaki.jp/450/page/0000078306.html",
    "address": "中原区今井仲町5-25",
    "postcode": "211-0065",
    "phone": "044-739-8001"
  },
  {
    "name": "心花保育園",
    "link": "http://www.city.kawasaki.jp/450/page/0000079044.html",
    "address": "中原区木月祇園町15-6",
    "postcode": "211-0033",
    "phone": "044-433-0587"
  },
  {
    "name": "武蔵小杉おおぞら保育園",
    "link": "http://www.city.kawasaki.jp/450/page/0000089128.html",
    "address": "中原区今井西町11-12",
    "postcode": "211-0066",
    "phone": "044-299-8889"
  },
  {
    "name": "しらゆり宮内保育園",
    "link": "http://www.city.kawasaki.jp/450/page/0000089035.html",
    "address": "中原区宮内1-4-55",
    "postcode": "211-0051",
    "phone": "044-741-1050"
  },
  {
    "name": "エクセレント武蔵新城保育園",
    "link": "http://www.city.kawasaki.jp/450/page/0000089027.html",
    "address": "中原区新城1-10-17　JAセレサ川崎4階",
    "postcode": "211-0044",
    "phone": "044-755-5106"
  },
  {
    "name": "すこやか小杉保育園",
    "link": "http://www.city.kawasaki.jp/450/page/0000099416.html",
    "address": "川崎市中原区新丸子東3－447－2",
    "postcode": "211-0004",
    "phone": "044-750-9925"
  },
  {
    "name": "木月ほほえみ保育園",
    "link": "http://www.city.kawasaki.jp/450/page/0000099123.html",
    "address": "中原区木月4-42-14",
    "postcode": "211-0025",
    "phone": "044-948-4483"
  },
  {
    "name": "レイモンド元住吉保育園",
    "link": "http://www.city.kawasaki.jp/450/page/0000098248.html",
    "address": "神奈川県川崎市中原区木月住吉町2-24",
    "postcode": "211-0021",
    "phone": "044-789-5695"
  },
  {
    "name": "ひまわりほいくえん",
    "link": "http://www.city.kawasaki.jp/450/page/0000098647.html",
    "address": "神奈川県川崎市中原区上小田中6丁目45-54",
    "postcode": "211-0053",
    "phone": "044-711-6560"
  },
  {
    "name": "あいみー平間保育園",
    "link": "http://www.city.kawasaki.jp/450/page/0000098770.html",
    "address": "川崎市中原区北谷町21-2",
    "postcode": "211-0015",
    "phone": "044-211-6941"
  },
  {
    "name": "武蔵小杉雲母保育園",
    "link": "http://www.city.kawasaki.jp/450/page/0000098336.html",
    "address": "川崎市中原区市ノ坪363-7",
    "postcode": "211-0016",
    "phone": "044-455-8084"
  },
  {
    "name": "グローバルキッズ武蔵小杉園",
    "link": "http://www.city.kawasaki.jp/450/page/0000071121.html",
    "address": "中原区新丸子東3-1135-1　グランツリー武蔵小杉3F",
    "postcode": "211-0004",
    "phone": "044-433-7007"
  },
  {
    "name": "みらいく木月園",
    "link": "http://www.city.kawasaki.jp/450/page/0000098660.html",
    "address": "神奈川県川崎市中原区木月4-28-2",
    "postcode": "211-0025",
    "phone": "044-750-7191"
  },
  {
    "name": "ニチイキッズひらま保育園",
    "link": "http://www.city.kawasaki.jp/450/page/0000098293.html",
    "address": "神奈川県川崎市中原区北谷町24-3",
    "postcode": "211-0015",
    "phone": "044-542-7577"
  },
  {
    "name": "アスク今井南保育園",
    "link": "http://www.city.kawasaki.jp/450/page/0000093300.html",
    "address": "中原区今井南町9-35",
    "postcode": "211-0064",
    "phone": "044-738-0370"
  },
  {
    "name": "ぶどうの実平間園",
    "link": "http://www.city.kawasaki.jp/450/page/0000078262.html",
    "address": "中原区北谷町693-10",
    "postcode": "211-0015",
    "phone": "044-540-3355"
  },
  {
    "name": "アイン武蔵小杉保育園",
    "link": "http://www.city.kawasaki.jp/450/page/0000061386.html",
    "address": "中原区中丸子1246-6",
    "postcode": "211-0012",
    "phone": "044-434-0551"
  },
  {
    "name": "ポポラー川崎武蔵小杉園",
    "link": "http://www.city.kawasaki.jp/450/page/0000079231.html",
    "address": "中原区市ノ坪449番地3　シティタワー武蔵小杉2階",
    "postcode": "211-0016",
    "phone": "044-431-8030"
  },
  {
    "name": "ポピンズナーサリースクール武蔵小杉",
    "link": "http://www.city.kawasaki.jp/450/page/0000050750.html",
    "address": "中原区小杉町3-472",
    "postcode": "211-0063",
    "phone": "044-738-2127"
  },
  {
    "name": "アイン武蔵小杉北保育園",
    "link": "http://www.city.kawasaki.jp/450/page/0000070841.html",
    "address": "中原区小杉町2-307-7",
    "postcode": "211-0063",
    "phone": "044-722-5588"
  },
  {
    "name": "アスク元住吉南保育園",
    "link": "http://www.city.kawasaki.jp/450/page/0000050746.html",
    "address": "中原区木月4-1-30",
    "postcode": "211-0025",
    "phone": "044-430-3230"
  },
  {
    "name": "蟹ヶ谷保育園",
    "link": "http://www.city.kawasaki.jp/450/page/0000030562.html",
    "address": "高津区蟹ヶ谷339",
    "postcode": "213-0025",
    "phone": "044-751-9040"
  },
  {
    "name": "津田山保育園",
    "link": "http://www.city.kawasaki.jp/450/page/0000030731.html",
    "address": "高津区下作延5-1-10",
    "postcode": "213-0033",
    "phone": "044-888-5291"
  },
  {
    "name": "梶ヶ谷保育園",
    "link": "http://www.city.kawasaki.jp/450/page/0000030774.html",
    "address": "高津区梶ヶ谷5-8-2",
    "postcode": "213-0015",
    "phone": "044-865-0355"
  },
  {
    "name": "緑の杜保育園",
    "link": "http://www.city.kawasaki.jp/450/page/0000030846.html",
    "address": "高津区下作延2-6-3",
    "postcode": "213-0033",
    "phone": "044-866-6914"
  },
  {
    "name": "坂戸保育園",
    "link": "http://www.city.kawasaki.jp/450/page/0000030861.html",
    "address": "高津区坂戸3-7-21",
    "postcode": "213-0012",
    "phone": "044-811-6922"
  },
  {
    "name": "みぞのくち保育園",
    "link": "http://www.city.kawasaki.jp/450/page/0000030869.html",
    "address": "高津区溝口4-19-2",
    "postcode": "213-0001",
    "phone": "044-811-5081"
  },
  {
    "name": "たちばな中央保育園",
    "link": "http://www.city.kawasaki.jp/450/page/0000030876.html",
    "address": "高津区千年1300",
    "postcode": "213-0022",
    "phone": "044-753-2525"
  },
  {
    "name": "くじ保育園",
    "link": "http://www.city.kawasaki.jp/450/page/0000030880.html",
    "address": "高津区久地3-16-1",
    "postcode": "213-0032",
    "phone": "044-829-0150"
  },
  {
    "name": "二子保育園",
    "link": "http://www.city.kawasaki.jp/450/page/0000030890.html",
    "address": "高津区二子5-14-56",
    "postcode": "213-0002",
    "phone": "044-812-0088"
  },
  {
    "name": "パレット保育園・高津",
    "link": "http://www.city.kawasaki.jp/450/page/0000030896.html",
    "address": "高津区二子2-13-5",
    "postcode": "213-0002",
    "phone": "044-829-0149"
  },
  {
    "name": "レッツ・びー梶ヶ谷保育園",
    "link": "http://www.city.kawasaki.jp/450/page/0000030900.html",
    "address": "高津区下作延2-35-1　スペースアメニティ梶ヶ谷1F",
    "postcode": "213-0033",
    "phone": "044-856-3721"
  },
  {
    "name": "YMCAたかつ保育園",
    "link": "http://www.city.kawasaki.jp/450/page/0000030907.html",
    "address": "高津区溝口1-19-1",
    "postcode": "213-0001",
    "phone": "044-281-7833"
  },
  {
    "name": "スターチャイルドKSPナーサリー",
    "link": "http://www.city.kawasaki.jp/450/page/0000030913.html",
    "address": "高津区坂戸3-2-1　かながわサイエンスパーク内",
    "postcode": "213-0012",
    "phone": "044-820-8331"
  },
  {
    "name": "アートチャイルドケア津田山きらら",
    "link": "http://www.city.kawasaki.jp/450/page/0000030921.html",
    "address": "高津区下作延6-6-21　アネックスK",
    "postcode": "213-0033",
    "phone": "044-281-8889"
  },
  {
    "name": "このはな保育園",
    "link": "http://www.city.kawasaki.jp/450/page/0000030931.html",
    "address": "高津区久地1-19-8　ガーデンパレス2階",
    "postcode": "213-0032",
    "phone": "044-811-8550"
  },
  {
    "name": "アスク高津保育園",
    "link": "http://www.city.kawasaki.jp/450/page/0000030938.html",
    "address": "高津区溝口6-23-16",
    "postcode": "213-0001",
    "phone": "044-829-4110"
  },
  {
    "name": "すこやか高津保育園",
    "link": "http://www.city.kawasaki.jp/450/page/0000030944.html",
    "address": "高津区二子5-1-5",
    "postcode": "213-0002",
    "phone": "044-833-8862"
  },
  {
    "name": "レッツ・びー溝の口保育園",
    "link": "http://www.city.kawasaki.jp/450/page/0000030950.html",
    "address": "高津区溝口2-16-6",
    "postcode": "213-0001",
    "phone": "044-811-7230"
  },
  {
    "name": "レッツ・びー久本保育園",
    "link": "http://www.city.kawasaki.jp/450/page/0000030859.html",
    "address": "高津区久本3-13-5",
    "postcode": "213-0011",
    "phone": "044-299-9472"
  },
  {
    "name": "アスク溝の口保育園",
    "link": "http://www.city.kawasaki.jp/450/page/0000031216.html",
    "address": "高津区下作延2-7-41",
    "postcode": "213-0033",
    "phone": "044-862-4187"
  },
  {
    "name": "アスクかじがや保育園",
    "link": "http://www.city.kawasaki.jp/450/page/0000031224.html",
    "address": "高津区梶ヶ谷3-12-6",
    "postcode": "213-0015",
    "phone": "044-871-7256"
  },
  {
    "name": "末長こぐま保育園",
    "link": "http://www.city.kawasaki.jp/450/page/0000031228.html",
    "address": "高津区末長1289-3",
    "postcode": "213-0013",
    "phone": "044-948-6615"
  },
  {
    "name": "うめのき保育園",
    "link": "http://www.city.kawasaki.jp/450/page/0000031236.html",
    "address": "高津区久地3-13-1",
    "postcode": "213-0032",
    "phone": "044-829-1830"
  },
  {
    "name": "レッツ・びー千年保育園",
    "link": "http://www.city.kawasaki.jp/450/page/0000031239.html",
    "address": "高津区千年717",
    "postcode": "213-0022",
    "phone": "044-863-7300"
  },
  {
    "name": "アスク武蔵新城保育園",
    "link": "http://www.city.kawasaki.jp/450/page/0000031242.html",
    "address": "高津区新作4-19-4",
    "postcode": "213-0014",
    "phone": "044-870-2133"
  },
  {
    "name": "アスク高津えきまえ保育園",
    "link": "http://www.city.kawasaki.jp/450/page/0000031244.html",
    "address": "高津区溝口3-8-17",
    "postcode": "213-0001",
    "phone": "044-833-5590"
  },
  {
    "name": "あいみー溝口保育園",
    "link": "http://www.city.kawasaki.jp/450/page/0000119652.html",
    "address": "高津区溝口3-14-4",
    "postcode": "213-0001",
    "phone": "044-455-6911"
  },
  {
    "name": "まなびの森保育園高津　分園",
    "link": "http://www.city.kawasaki.jp/450/page/0000050754.html",
    "address": "高津区溝口3-9-4",
    "postcode": "213-0001",
    "phone": "044-833-7558"
  },
  {
    "name": "溝の口もりのこ保育園",
    "link": "http://www.city.kawasaki.jp/450/page/0000065200.html",
    "address": "高津区坂戸1-552",
    "postcode": "213-0012",
    "phone": "044-813-5335"
  },
  {
    "name": "まなびの森保育園高津",
    "link": "http://www.city.kawasaki.jp/450/page/0000070585.html",
    "address": "高津区久地1-8-1",
    "postcode": "213-0032",
    "phone": "044-813-5520"
  },
  {
    "name": "まなびの森保育園梶ヶ谷",
    "link": "http://www.city.kawasaki.jp/450/page/0000117061.html",
    "address": "高津区末長1丁目9番1号　スタイリオ梶が谷3階",
    "postcode": "213-0013",
    "phone": "044-877-1900"
  },
  {
    "name": "ソラスト高津保育園",
    "link": "http://www.city.kawasaki.jp/450/page/0000089317.html",
    "address": "川崎市高津区二子3-31-3",
    "postcode": "213-0002",
    "phone": "044-299-6191"
  },
  {
    "name": "明日葉保育園武蔵新城園",
    "link": "http://www.city.kawasaki.jp/450/page/0000059716.html",
    "address": "高津区千年1026",
    "postcode": "213-0022",
    "phone": "044-740-9993"
  },
  {
    "name": "ちとせ山ゆり保育園",
    "link": "http://www.city.kawasaki.jp/450/page/0000115000.html",
    "address": "高津区千年970",
    "postcode": "213-0022",
    "phone": "044-755-9211"
  },
  {
    "name": "にじいろ保育園武蔵新城",
    "link": "http://www.city.kawasaki.jp/450/page/0000079020.html",
    "address": "神奈川県川崎市高津区新作5-17-18",
    "postcode": "213-0014",
    "phone": "044-982-0532"
  },
  {
    "name": "にじいろ保育園二子新地",
    "link": "http://www.city.kawasaki.jp/450/page/0000079463.html",
    "address": "神奈川県川崎市高津区二子1-17-5",
    "postcode": "213-0002",
    "phone": "044-712-3806"
  },
  {
    "name": "子母口わかば保育園",
    "link": "http://www.city.kawasaki.jp/450/page/0000059750.html",
    "address": "高津区子母口378",
    "postcode": "213-0023",
    "phone": "044-755-2271"
  },
  {
    "name": "ぶどうの実久地園",
    "link": "http://www.city.kawasaki.jp/450/page/0000089122.html",
    "address": "川崎市高津区久地4丁目24番5号新川屋センタービル4F",
    "postcode": "213-0032",
    "phone": "044-829-6550"
  },
  {
    "name": "ちゃいれっく新作保育園",
    "link": "http://www.city.kawasaki.jp/450/page/0000099154.html",
    "address": "高津区新作4-8-11",
    "postcode": "213-0014",
    "phone": "044-789-5665"
  },
  {
    "name": "野川ほのぼの保育園",
    "link": "http://www.city.kawasaki.jp/450/page/0000078947.html",
    "address": "川崎市高津区野川3906-4",
    "postcode": "213-0027",
    "phone": "044-750-8600"
  },
  {
    "name": "坂戸くれよん保育園",
    "link": "http://www.city.kawasaki.jp/450/page/0000109776.html",
    "address": "高津区坂戸1-17-20",
    "postcode": "213-0012",
    "phone": "044-299-9010"
  },
  {
    "name": "ファミリア・キッズ二子新地駅前園",
    "link": "http://www.city.kawasaki.jp/450/page/0000109766.html",
    "address": "高津区二子1-2-25",
    "postcode": "213-0002",
    "phone": "044-850-5070"
  },
  {
    "name": "川崎子母口雲母保育園",
    "link": "http://www.city.kawasaki.jp/450/page/0000109794.html",
    "address": "高津区子母口545-1",
    "postcode": "213-0023",
    "phone": "044-788-5588"
  },
  {
    "name": "西高津くさはな保育園",
    "link": "http://www.city.kawasaki.jp/450/page/0000109785.html",
    "address": "高津区久本3丁目9番9号",
    "postcode": "213-0011",
    "phone": "044-543-9311"
  },
  {
    "name": "すこやか諏訪保育園",
    "link": "http://www.city.kawasaki.jp/450/page/0000076065.html",
    "address": "高津区諏訪3-20-15",
    "postcode": "213-0004",
    "phone": "044-712-5496"
  },
  {
    "name": "あいみー高津保育園",
    "link": "http://www.city.kawasaki.jp/450/page/0000078955.html",
    "address": "高津区溝口5-21-12",
    "postcode": "213-0001",
    "phone": "044-281-3883"
  },
  {
    "name": "ニチイキッズ梶ヶ谷保育園",
    "link": "http://www.city.kawasaki.jp/450/page/0000079439.html",
    "address": "高津区梶ヶ谷2－7－7",
    "postcode": "213-0015",
    "phone": "044-860-1031"
  },
  {
    "name": "にじのそら溝の口保育園",
    "link": "http://www.city.kawasaki.jp/450/page/0000099140.html",
    "address": "高津区久本3丁目9番9号",
    "postcode": "213-0011",
    "phone": "044-455-7620"
  },
  {
    "name": "天才キッズクラブ楽学館溝の口園",
    "link": "http://www.city.kawasaki.jp/450/page/0000099143.html",
    "address": "高津区溝口3-11-20",
    "postcode": "213-0001",
    "phone": "044-281-3930"
  },
  {
    "name": "保育園ゆいまあむ",
    "link": "http://www.city.kawasaki.jp/450/page/0000099129.html",
    "address": "川崎市高津区末長2丁目15-6",
    "postcode": "213-0014",
    "phone": "044-948-6300"
  },
  {
    "name": "ぶどうの実梶ヶ谷園",
    "link": "http://www.city.kawasaki.jp/450/page/0000076172.html",
    "address": "高津区新作1-18-4",
    "postcode": "213-0014",
    "phone": "044-870-3553"
  },
  {
    "name": "わらべうた溝の口南口保育園",
    "link": "http://www.city.kawasaki.jp/450/page/0000076744.html",
    "address": "高津区溝口1-1-30　溝口ブロックスビル201",
    "postcode": "213-0001",
    "phone": "044-870-6633"
  },
  {
    "name": "ベネッセ武蔵新城保育園",
    "link": "http://www.city.kawasaki.jp/450/page/0000048941.html",
    "address": "高津区新作6-5-1",
    "postcode": "213-0014",
    "phone": "044-871-6502"
  },
  {
    "name": "ベネッセ津田山保育園",
    "link": "http://www.city.kawasaki.jp/450/page/0000079078.html",
    "address": "高津区上作延527-1",
    "postcode": "213-0034",
    "phone": "044-870-1188"
  },
  {
    "name": "スターチャイルド≪高津ナーサリー≫保育園",
    "link": "http://www.city.kawasaki.jp/450/page/0000078930.html",
    "address": "高津区二子6-2-3",
    "postcode": "213-0002",
    "phone": "044-829-6370"
  },
  {
    "name": "スターチャイルド≪高津溝口ナーサリー≫",
    "link": "http://www.city.kawasaki.jp/450/page/0000098676.html",
    "address": "高津区溝口4-15-18",
    "postcode": "213-0001",
    "phone": "044-850-2700"
  },
  {
    "name": "千年たちばな保育園",
    "link": "http://www.city.kawasaki.jp/450/page/0000089311.html",
    "address": "川崎市高津区千年107",
    "postcode": "213-0022",
    "phone": "044-741-5510"
  },
  {
    "name": "川崎たちばな保育園",
    "link": "http://www.city.kawasaki.jp/450/page/0000098639.html",
    "address": "高津区向ヶ丘1-3",
    "postcode": "213-0035",
    "phone": "044-789-9710"
  },
  {
    "name": "小学館アカデミーむさししんじょう第2保育園",
    "link": "http://www.city.kawasaki.jp/450/page/0000050735.html",
    "address": "高津区末長1559-1",
    "postcode": "213-0013",
    "phone": "044-850-8651"
  },
  {
    "name": "すこやか溝口保育園",
    "link": "http://www.city.kawasaki.jp/450/page/0000050753.html",
    "address": "高津区溝口2-31",
    "postcode": "213-0001",
    "phone": "044-543-8120"
  },
  {
    "name": "有馬保育園",
    "link": "http://www.city.kawasaki.jp/450/page/0000031263.html",
    "address": "宮前区東有馬5-16-1",
    "postcode": "216-0002",
    "phone": "044-888-3751"
  },
  {
    "name": "菅生保育園",
    "link": "http://www.city.kawasaki.jp/450/page/0000031275.html",
    "address": "宮前区初山1-23-15",
    "postcode": "216-0026",
    "phone": "044-977-9320"
  },
  {
    "name": "平保育園",
    "link": "http://www.city.kawasaki.jp/450/page/0000031290.html",
    "address": "宮前区平2-13-1",
    "postcode": "216-0022",
    "phone": "044-865-1031"
  },
  {
    "name": "中有馬保育園",
    "link": "http://www.city.kawasaki.jp/450/page/0000031296.html",
    "address": "宮前区有馬3-2-10",
    "postcode": "216-0003",
    "phone": "044-854-0425"
  },
  {
    "name": "土橋保育園",
    "link": "http://www.city.kawasaki.jp/450/page/0000031310.html",
    "address": "宮前区土橋2-14-1",
    "postcode": "216-0005",
    "phone": "044-855-2877"
  },
  {
    "name": "みやざき保育園",
    "link": "http://www.city.kawasaki.jp/450/page/0000031315.html",
    "address": "宮前区宮前平1-2-2",
    "postcode": "216-0006",
    "phone": "044-855-7520"
  },
  {
    "name": "野川南台保育園",
    "link": "http://www.city.kawasaki.jp/450/page/0000031332.html",
    "address": "宮前区野川2252-6",
    "postcode": "216-0001",
    "phone": "044-740-1833"
  },
  {
    "name": "こどものいえもも保育園",
    "link": "http://www.city.kawasaki.jp/450/page/0000031341.html",
    "address": "宮前区馬絹1－24－9",
    "postcode": "216-0035",
    "phone": "044-860-2415"
  },
  {
    "name": "もものか保育園",
    "link": "http://www.city.kawasaki.jp/450/page/0000031346.html",
    "address": "宮前区馬絹1ー9ー2",
    "postcode": "216-0035",
    "phone": "044-860-2781"
  },
  {
    "name": "さぎ沼なごみ保育園",
    "link": "http://www.city.kawasaki.jp/450/page/0000031352.html",
    "address": "宮前区土橋3-1-6",
    "postcode": "216-0005",
    "phone": "044-871-7531"
  },
  {
    "name": "アスクさぎぬま保育園",
    "link": "http://www.city.kawasaki.jp/450/page/0000031361.html",
    "address": "宮前区鷺沼1-22-6",
    "postcode": "216-0004",
    "phone": "044-860-2708"
  },
  {
    "name": "アスク宮前平えきまえ保育園",
    "link": "http://www.city.kawasaki.jp/450/page/0000031363.html",
    "address": "宮前区宮前平1-12-5",
    "postcode": "216-0006",
    "phone": "044-856-7911"
  },
  {
    "name": "ティンクル上野川保育園",
    "link": "http://www.city.kawasaki.jp/450/page/0000031367.html",
    "address": "宮前区西野川2-37-13",
    "postcode": "216-0044",
    "phone": "044-752-2868"
  },
  {
    "name": "宮前平もりのこ保育園",
    "link": "http://www.city.kawasaki.jp/450/page/0000031372.html",
    "address": "宮前区宮前平2-5-16",
    "postcode": "216-0006",
    "phone": "044-865-2116"
  },
  {
    "name": "小学館アカデミーさぎぬま保育園",
    "link": "http://www.city.kawasaki.jp/450/page/0000031378.html",
    "address": "宮前区鷺沼1-23-7",
    "postcode": "216-0004",
    "phone": "044-862-8721"
  },
  {
    "name": "ぶどうの実鷺沼園",
    "link": "http://www.city.kawasaki.jp/450/page/0000031389.html",
    "address": "宮前区鷺沼2-7-23",
    "postcode": "216-0004",
    "phone": "044-870-7171"
  },
  {
    "name": "小学館アカデミーみやまえだいら保育園",
    "link": "http://www.city.kawasaki.jp/450/page/0000031393.html",
    "address": "宮前区宮前平2-1-2",
    "postcode": "216-0006",
    "phone": "044-862-8615"
  },
  {
    "name": "みやまえの杜保育園",
    "link": "http://www.city.kawasaki.jp/450/page/0000119666.html",
    "address": "宮前区宮前平3-9-1",
    "postcode": "210-0006",
    "phone": "044-872-7455"
  },
  {
    "name": "まなびの森保育園馬絹",
    "link": "http://www.city.kawasaki.jp/450/page/0000119069.html",
    "address": "宮前区馬絹4-1-18",
    "postcode": "216-0035",
    "phone": "044-750-7878"
  },
  {
    "name": "スターチャイルド≪宮前平ナーサリー≫",
    "link": "http://www.city.kawasaki.jp/450/page/0000118850.html",
    "address": "宮前区馬絹1丁目6-8　宮前平DRビル2F",
    "postcode": "216-0035",
    "phone": "044-870-0888"
  },
  {
    "name": "明日葉保育園宮崎台園",
    "link": "http://www.city.kawasaki.jp/450/page/0000091557.html",
    "address": "神奈川県川崎市宮前区馬絹2-2-3",
    "postcode": "216-0035",
    "phone": "044-948-7080"
  },
  {
    "name": "明日葉保育園鷺沼園",
    "link": "http://www.city.kawasaki.jp/450/page/0000060137.html",
    "address": "宮前区鷺沼1-6-3",
    "postcode": "216-0004",
    "phone": "044-982-9186"
  },
  {
    "name": "あい・あい保育園　宮前平園",
    "link": "http://www.city.kawasaki.jp/450/page/0000109928.html",
    "address": "宮前区土橋2-1-7",
    "postcode": "216-0005",
    "phone": "044-750-7288"
  },
  {
    "name": "アスク宮崎台保育園",
    "link": "http://www.city.kawasaki.jp/450/page/0000060237.html",
    "address": "宮前区宮前平1-1-15",
    "postcode": "216-0006",
    "phone": "044-871-2108"
  },
  {
    "name": "まなびの森保育園宮前平",
    "link": "http://www.city.kawasaki.jp/450/page/0000065201.html",
    "address": "宮前区土橋2-5-1",
    "postcode": "216-0005",
    "phone": "044-855-5123"
  },
  {
    "name": "かわさき犬蔵保育園",
    "link": "http://www.city.kawasaki.jp/450/page/0000068984.html",
    "address": "宮前区犬蔵2-4-29",
    "postcode": "216-0004",
    "phone": "044-978-5080"
  },
  {
    "name": "まなびの森保育園宮崎台",
    "link": "http://www.city.kawasaki.jp/450/page/0000093259.html",
    "address": "宮前区宮崎2-3-11",
    "postcode": "216-0033",
    "phone": "044-853-0020"
  },
  {
    "name": "わらべうた鷺沼保育園",
    "link": "http://www.city.kawasaki.jp/450/page/0000078849.html",
    "address": "宮前区鷺沼1－8－5",
    "postcode": "216-0004",
    "phone": "044-982-1313"
  },
  {
    "name": "わらべうた宮崎台保育園",
    "link": "http://www.city.kawasaki.jp/450/page/0000070504.html",
    "address": "川崎市宮前区宮崎2－9－3　メゾン・ド・バッハ3階",
    "postcode": "216-0033",
    "phone": "044-870-1144"
  },
  {
    "name": "有馬の杜コスモス保育園",
    "link": "http://www.city.kawasaki.jp/450/page/0000070774.html",
    "address": "宮前区有馬6-10-31",
    "postcode": "216-0003",
    "phone": "044-982-3380"
  },
  {
    "name": "ピュアリー宮前平保育園",
    "link": "http://www.city.kawasaki.jp/450/page/0000080718.html",
    "address": "宮前区馬絹1ー28ー12",
    "postcode": "216-0035",
    "phone": "044-852-0007"
  },
  {
    "name": "みなみすがお保育園",
    "link": "http://www.city.kawasaki.jp/450/page/0000109891.html",
    "address": "宮前区菅生4-4-1",
    "postcode": "216-0015",
    "phone": "044-863-8741"
  },
  {
    "name": "たつのこのはら保育園",
    "link": "http://www.city.kawasaki.jp/450/page/0000050757.html",
    "address": "宮前区土橋4-7-1",
    "postcode": "216-0005",
    "phone": "044-920-9200"
  },
  {
    "name": "有馬川はなみずき保育園",
    "link": "http://www.city.kawasaki.jp/450/page/0000048968.html",
    "address": "宮前区東有馬5-23-43",
    "postcode": "216-0002",
    "phone": "044-870-3434"
  },
  {
    "name": "ティンクルくぬぎ坂保育園",
    "link": "http://www.city.kawasaki.jp/450/page/0000050759.html",
    "address": "宮前区野川1483-1",
    "postcode": "216-0001",
    "phone": "044-920-9611"
  },
  {
    "name": "すきっぷ保育園",
    "link": "http://www.city.kawasaki.jp/450/page/0000069753.html",
    "address": "宮前区宮崎2－1－1生活クラブ高津センター2階",
    "postcode": "216-0033",
    "phone": "044-877-6215"
  },
  {
    "name": "アスク宮前平保育園",
    "link": "http://www.city.kawasaki.jp/450/page/0000079394.html",
    "address": "宮前区宮前平2－11－6",
    "postcode": "216-0006",
    "phone": "044-854-4855"
  },
  {
    "name": "あおぞら保育園",
    "link": "http://www.city.kawasaki.jp/450/page/0000091624.html",
    "address": "川崎市宮前区土橋2-11-12 向山ビル2F",
    "postcode": "216-0005",
    "phone": "044-820-6852"
  },
  {
    "name": "にじいろ保育園犬蔵",
    "link": "http://www.city.kawasaki.jp/450/page/0000069385.html",
    "address": "宮前区犬蔵2-24-10",
    "postcode": "216-0011",
    "phone": "044-982-3144"
  },
  {
    "name": "にじいろ保育園宮前平",
    "link": "http://www.city.kawasaki.jp/450/page/0000088465.html",
    "address": "神奈川県川崎市宮前区馬絹1-6-2",
    "postcode": "216-0035",
    "phone": "044-982-0790"
  },
  {
    "name": "宮崎台コスモス保育園",
    "link": "http://www.city.kawasaki.jp/450/page/0000109879.html",
    "address": "宮前区宮崎2丁目6-10　1F",
    "postcode": "216-0033",
    "phone": "044-877-5624"
  },
  {
    "name": "保育園SCOPS宮崎台",
    "link": "http://www.city.kawasaki.jp/450/page/0000108324.html",
    "address": "宮前区宮崎2-9-15　アーバンコート宮崎台1F",
    "postcode": "216-0033",
    "phone": "044-861-1150"
  },
  {
    "name": "くぬぎ保育園",
    "link": "http://www.city.kawasaki.jp/450/page/0000109889.html",
    "address": "宮前区土橋1-4-5",
    "postcode": "216-0005",
    "phone": "044-750-9889"
  },
  {
    "name": "ナーサリールーム ベリーベアー鷺沼Annex",
    "link": "http://www.city.kawasaki.jp/450/page/0000091565.html",
    "address": "宮前区東有馬2-35-38",
    "postcode": "216-0002",
    "phone": "044-863-6007"
  },
  {
    "name": "ナーサリールームベリーベアー鷺沼",
    "link": "http://www.city.kawasaki.jp/450/page/0000068853.html",
    "address": "宮前区鷺沼3-5-2　MCビル1～3階",
    "postcode": "216-0004",
    "phone": "044-948-7941"
  },
  {
    "name": "宮前空翠保育園",
    "link": "http://www.city.kawasaki.jp/450/page/0000078062.html",
    "address": "川崎市宮前区土橋1-2-3",
    "postcode": "216-0005",
    "phone": "044-855-8815"
  },
  {
    "name": "ピュアリー鷺沼保育園",
    "link": "http://www.city.kawasaki.jp/450/page/0000099411.html",
    "address": "宮前区鷺沼3-2-4",
    "postcode": "216-0004",
    "phone": "044-948-8458"
  },
  {
    "name": "ぶどうの実第2さぎぬま園",
    "link": "http://www.city.kawasaki.jp/450/page/0000099407.html",
    "address": "宮前区鷺沼2-6-5",
    "postcode": "216-0004",
    "phone": "044-860-3315"
  },
  {
    "name": "保育園アリス馬絹",
    "link": "http://www.city.kawasaki.jp/450/page/0000099412.html",
    "address": "宮前区馬絹4-18-27",
    "postcode": "216-0035",
    "phone": "044-872-7071"
  },
  {
    "name": "グリーンフォレスト神木保育園",
    "link": "http://www.city.kawasaki.jp/450/page/0000060139.html",
    "address": "宮前区神木本町2-5-5",
    "postcode": "216-0031",
    "phone": "044-871-7010"
  },
  {
    "name": "西有馬おひさま保育園",
    "link": "http://www.city.kawasaki.jp/450/page/0000060269.html",
    "address": "宮前区有馬1-8-6",
    "postcode": "216-0003",
    "phone": "044-855-2525"
  },
  {
    "name": "ナーサリールーム ベリーベアー宮崎台",
    "link": "http://www.city.kawasaki.jp/450/page/0000099545.html",
    "address": "宮前区宮崎3-13-27",
    "postcode": "216-0033",
    "phone": "044-750-9800"
  },
  {
    "name": "向丘はなみずき保育園",
    "link": "http://www.city.kawasaki.jp/450/page/0000091732.html",
    "address": "川崎市宮前区南平台4－2",
    "postcode": "216-0024",
    "phone": "044-750-0150"
  },
  {
    "name": "可愛保育園",
    "link": "http://www.city.kawasaki.jp/450/page/0000091570.html",
    "address": "川崎市宮前区宮前平1－9－24　A101・A102",
    "postcode": "216-0006",
    "phone": "044-855-8496"
  },
  {
    "name": "クレアナーサリー宮前平",
    "link": "http://www.city.kawasaki.jp/450/page/0000070578.html",
    "address": "宮前区小台2－11－3",
    "postcode": "216-0007",
    "phone": "044-872-9368"
  },
  {
    "name": "菅保育園",
    "link": "http://www.city.kawasaki.jp/450/page/0000031428.html",
    "address": "多摩区菅1-5-24",
    "postcode": "214-0001",
    "phone": "044-945-5109"
  },
  {
    "name": "土渕保育園",
    "link": "http://www.city.kawasaki.jp/450/page/0000031534.html",
    "address": "多摩区生田2-14-5",
    "postcode": "214-0038",
    "phone": "044-933-8942"
  },
  {
    "name": "保育園アリス宿河原",
    "link": "http://www.city.kawasaki.jp/450/page/0000031547.html",
    "address": "多摩区宿河原3-13-9",
    "postcode": "214-0021",
    "phone": "044-455-5211"
  },
  {
    "name": "稲田保育園",
    "link": "http://www.city.kawasaki.jp/450/page/0000031366.html",
    "address": "多摩区登戸1416",
    "postcode": "214-0014",
    "phone": "044-933-7335"
  },
  {
    "name": "厚生館愛児園",
    "link": "http://www.city.kawasaki.jp/450/page/0000031382.html",
    "address": "多摩区菅稲田堤1-11-8",
    "postcode": "214-0003",
    "phone": "044-944-4733"
  },
  {
    "name": "龍厳寺保育園",
    "link": "http://www.city.kawasaki.jp/450/page/0000031395.html",
    "address": "多摩区堰3-11-13",
    "postcode": "214-0022",
    "phone": "044-811-0436"
  },
  {
    "name": "ひばり保育園",
    "link": "http://www.city.kawasaki.jp/450/page/0000031467.html",
    "address": "多摩区宿河原6-46-6",
    "postcode": "214-0021",
    "phone": "044-811-1255"
  },
  {
    "name": "第二厚生館愛児園",
    "link": "http://www.city.kawasaki.jp/450/page/0000031404.html",
    "address": "多摩区寺尾台1-1-19",
    "postcode": "214-0005",
    "phone": "044-955-2933"
  },
  {
    "name": "なごみ保育園",
    "link": "http://www.city.kawasaki.jp/450/page/0000031426.html",
    "address": "多摩区菅稲田堤3-9-2",
    "postcode": "214-0003",
    "phone": "044-944-2082"
  },
  {
    "name": "星の子愛児園",
    "link": "http://www.city.kawasaki.jp/450/page/0000031435.html",
    "address": "多摩区菅稲田堤1-17-25",
    "postcode": "214-0003",
    "phone": "044-944-8181"
  },
  {
    "name": "KFJ多摩なのはな保育園",
    "link": "http://www.city.kawasaki.jp/450/page/0000031460.html",
    "address": "多摩区登戸2249-1",
    "postcode": "214-0014",
    "phone": "044-930-1261"
  },
  {
    "name": "ひばりっこくらぶ保育園",
    "link": "http://www.city.kawasaki.jp/450/page/0000031471.html",
    "address": "多摩区宿河原6-35-16",
    "postcode": "214-0021",
    "phone": "044-844-7448"
  },
  {
    "name": "太陽の子保育園",
    "link": "http://www.city.kawasaki.jp/450/page/0000031478.html",
    "address": "多摩区栗谷2-16-14",
    "postcode": "214-0039",
    "phone": "044-954-3906"
  },
  {
    "name": "ハグミー・ナーサリー",
    "link": "http://www.city.kawasaki.jp/450/page/0000031482.html",
    "address": "多摩区中野島3-15-15",
    "postcode": "214-0012",
    "phone": "044-935-6788"
  },
  {
    "name": "そらまめ保育園　分園",
    "link": "http://www.city.kawasaki.jp/450/page/0000031512.html",
    "address": "多摩区宿河原1-1-40",
    "postcode": "214-0021",
    "phone": "044-900-1527"
  },
  {
    "name": "にじいろ保育園登戸",
    "link": "http://www.city.kawasaki.jp/450/page/0000031516.html",
    "address": "多摩区登戸3329-6",
    "postcode": "214-0014",
    "phone": "044-322-8041"
  },
  {
    "name": "うぃず宿河原保育園",
    "link": "http://www.city.kawasaki.jp/450/page/0000031519.html",
    "address": "多摩区長尾4-1-2",
    "postcode": "214-0023",
    "phone": "044-299-6846"
  },
  {
    "name": "ぶどうの実登戸園",
    "link": "http://www.city.kawasaki.jp/450/page/0000031524.html",
    "address": "多摩区登戸新町187 スカイノート101",
    "postcode": "214-0013",
    "phone": "044-931-3550"
  },
  {
    "name": "のぼりっこ保育園",
    "link": "http://www.city.kawasaki.jp/450/page/0000031533.html",
    "address": "多摩区登戸3185",
    "postcode": "214-0014",
    "phone": "044-932-1558"
  },
  {
    "name": "至誠館なしのはな保育園",
    "link": "http://www.city.kawasaki.jp/450/page/0000031541.html",
    "address": "多摩区菅稲田堤1-10-5",
    "postcode": "214-0003",
    "phone": "044-944-7451"
  },
  {
    "name": "宿河原もりのこ保育園",
    "link": "http://www.city.kawasaki.jp/450/page/0000031554.html",
    "address": "多摩区長尾1-11-6",
    "postcode": "214-0023",
    "phone": "044-900-6080"
  },
  {
    "name": "アスク向ヶ丘遊園北保育園",
    "link": "http://www.city.kawasaki.jp/450/page/0000031558.html",
    "address": "多摩区登戸514-1",
    "postcode": "214-0014",
    "phone": "044-922-2280"
  },
  {
    "name": "アスク向ヶ丘遊園南保育園",
    "link": "http://www.city.kawasaki.jp/450/page/0000031568.html",
    "address": "多摩区宿河原2-48-36",
    "postcode": "214-0021",
    "phone": "044-930-0102"
  },
  {
    "name": "うぃず稲田堤保育園",
    "link": "http://www.city.kawasaki.jp/450/page/0000031572.html",
    "address": "多摩区菅馬場2-5-9",
    "postcode": "214-0004",
    "phone": "044-712-7746"
  },
  {
    "name": "アスク宿河原保育園",
    "link": "http://www.city.kawasaki.jp/450/page/0000031577.html",
    "address": "多摩区宿河原2-5-1",
    "postcode": "214-0021",
    "phone": "044-934-1415"
  },
  {
    "name": "「こころの花」ほいくえん登戸駅前",
    "link": "http://www.city.kawasaki.jp/450/page/0000119789.html",
    "address": "多摩区登戸3277-1",
    "postcode": "214-0014",
    "phone": "044-322-0087"
  },
  {
    "name": "読売ランド前どろんこ保育園",
    "link": "http://www.city.kawasaki.jp/450/page/0000119790.html",
    "address": "多摩区西生田1-7-1",
    "postcode": "214-0037",
    "phone": "044-299-6561"
  },
  {
    "name": "ゆりの花保育園",
    "link": "http://www.city.kawasaki.jp/450/page/0000119808.html",
    "address": "多摩区登戸2949-1　2・3F",
    "postcode": "214-0014",
    "phone": "044-712-5244"
  },
  {
    "name": "溝口ピノキオ保育園",
    "link": "http://www.city.kawasaki.jp/450/page/0000119665.html",
    "address": "高津区溝口3-24-5",
    "postcode": "213-0001",
    "phone": "044-712-5301"
  },
  {
    "name": "すみれいろ保育園",
    "link": "http://www.city.kawasaki.jp/450/page/0000118761.html",
    "address": "多摩区宿河原3－3－15",
    "postcode": "214-0021",
    "phone": "044-543-8410"
  },
  {
    "name": "生田保育園",
    "link": "http://www.city.kawasaki.jp/450/page/0000031410.html",
    "address": "多摩区西生田3-15-10",
    "postcode": "214-0037",
    "phone": "044-966-2502"
  },
  {
    "name": "生田ルミナス保育園",
    "link": "http://www.city.kawasaki.jp/450/page/0000119052.html",
    "address": "多摩区三田1-7-7",
    "postcode": "214-0034",
    "phone": "044-712-4471"
  },
  {
    "name": "登戸ピノキオ保育園",
    "link": "http://www.city.kawasaki.jp/450/page/0000118755.html",
    "address": "多摩区生田2－20－23",
    "postcode": "214-0038",
    "phone": "044-819-5581"
  },
  {
    "name": "ウィズブック保育園中野島",
    "link": "http://www.city.kawasaki.jp/450/page/0000118764.html",
    "address": "多摩区中野島3－13－11",
    "postcode": "214-0012",
    "phone": "044-712-7260"
  },
  {
    "name": "天才キッズクラブ楽学館登戸園",
    "link": "http://www.city.kawasaki.jp/450/page/0000089132.html",
    "address": "多摩区登戸2184－1　トミタヤBLD1・2F",
    "postcode": "214-0014",
    "phone": "044-712-5048"
  },
  {
    "name": "中野島フレンズ保育園",
    "link": "http://www.city.kawasaki.jp/450/page/0000050760.html",
    "address": "多摩区布田18-25",
    "postcode": "214-0011",
    "phone": "044-944-9288"
  },
  {
    "name": "なかのしまのぞみ保育園",
    "link": "http://www.city.kawasaki.jp/450/page/0000050762.html",
    "address": "多摩区中野島4-20-23",
    "postcode": "214-0012",
    "phone": "044-328-5971"
  },
  {
    "name": "うぃず向ヶ丘遊園保育園",
    "link": "http://www.city.kawasaki.jp/450/page/0000072143.html",
    "address": "多摩区東生田1-11-12",
    "postcode": "214-0031",
    "phone": "044-922-9422"
  },
  {
    "name": "クレアナーサリー向ヶ丘遊園",
    "link": "http://www.city.kawasaki.jp/450/page/0000072150.html",
    "address": "多摩区登戸2700-4",
    "postcode": "214-0031",
    "phone": "044-819-4714"
  },
  {
    "name": "にじいろ保育園稲田堤",
    "link": "http://www.city.kawasaki.jp/450/page/0000099229.html",
    "address": "多摩区菅馬場1-23-32",
    "postcode": "214-0004",
    "phone": "044-299-8583"
  },
  {
    "name": "そらまめ保育園　本園",
    "link": "http://www.city.kawasaki.jp/450/page/0000109603.html",
    "address": "多摩区宿河原1-1-32",
    "postcode": "214-0021",
    "phone": "044-299-8760"
  },
  {
    "name": "こひばり保育園",
    "link": "http://www.city.kawasaki.jp/450/page/0000048915.html",
    "address": "多摩区堰2-6-21",
    "postcode": "214-0022",
    "phone": "044-819-5143"
  },
  {
    "name": "小学館アカデミー西いくた保育園",
    "link": "http://www.city.kawasaki.jp/450/page/0000058792.html",
    "address": "多摩区西生田3-13-7",
    "postcode": "214-0037",
    "phone": "044-969-7431"
  },
  {
    "name": "第2くまのこ園",
    "link": "http://www.city.kawasaki.jp/450/page/0000078243.html",
    "address": "多摩区菅稲田堤3-1-2",
    "postcode": "214-0003",
    "phone": "044-819-5263"
  },
  {
    "name": "登戸ゆりのき保育園",
    "link": "http://www.city.kawasaki.jp/450/page/0000089138.html",
    "address": "多摩区登戸2596　川崎信用金庫登戸支店4階及び5階一部",
    "postcode": "214-0014",
    "phone": "044-322-8075"
  },
  {
    "name": "西しゅくマーノ保育園",
    "link": "http://www.city.kawasaki.jp/450/page/0000048942.html",
    "address": "多摩区宿河原2-19-6",
    "postcode": "214-0021",
    "phone": "044-933-1152"
  },
  {
    "name": "三田かしのみ保育園",
    "link": "http://www.city.kawasaki.jp/450/page/0000059222.html",
    "address": "多摩区三田1-18-3",
    "postcode": "214-0034",
    "phone": "044-932-2111"
  },
  {
    "name": "ココファン・ナーサリー登戸",
    "link": "http://www.city.kawasaki.jp/450/page/0000069704.html",
    "address": "多摩区登戸1612",
    "postcode": "214-0014",
    "phone": "044-930-1251"
  },
  {
    "name": "のらぼう愛児園",
    "link": "http://www.city.kawasaki.jp/450/page/0000089935.html",
    "address": "多摩区菅5－2－1",
    "postcode": "214-0001",
    "phone": "044-945-6331"
  },
  {
    "name": "中野島のはら保育園",
    "link": "http://www.city.kawasaki.jp/450/page/0000089934.html",
    "address": "多摩区中野島4－4－15",
    "postcode": "214-0012",
    "phone": "044-455-5510"
  },
  {
    "name": "菅の子愛児園",
    "link": "http://www.city.kawasaki.jp/450/page/0000098376.html",
    "address": "多摩区菅稲田堤1－3－16",
    "postcode": "214-0003",
    "phone": "044-945-2221"
  },
  {
    "name": "南いくた保育園",
    "link": "http://www.city.kawasaki.jp/450/page/0000098698.html",
    "address": "多摩区南生田3-2-7",
    "postcode": "214-0036",
    "phone": "044-712-4656"
  },
  {
    "name": "アスク生田保育園",
    "link": "http://www.city.kawasaki.jp/450/page/0000060142.html",
    "address": "多摩区生田8-8-14",
    "postcode": "214-0038",
    "phone": "044-911-7791"
  },
  {
    "name": "上麻生保育園",
    "link": "http://www.city.kawasaki.jp/450/page/0000031581.html",
    "address": "麻生区上麻生7-2-3",
    "postcode": "215-0021",
    "phone": "044-988-8520"
  },
  {
    "name": "高石保育園",
    "link": "http://www.city.kawasaki.jp/450/page/0000031586.html",
    "address": "麻生区高石1-14-15",
    "postcode": "215-0003",
    "phone": "044-954-5355"
  },
  {
    "name": "白山保育園",
    "link": "http://www.city.kawasaki.jp/450/page/0000031608.html",
    "address": "麻生区白山4-2-1",
    "postcode": "215-0014",
    "phone": "044-987-7722"
  },
  {
    "name": "社会福祉法人横浜悠久会白鳥保育園",
    "link": "http://www.city.kawasaki.jp/450/page/0000031616.html",
    "address": "麻生区白鳥1-17-2",
    "postcode": "215-0024",
    "phone": "044-987-8206"
  },
  {
    "name": "柿生保育園",
    "link": "http://www.city.kawasaki.jp/450/page/0000031622.html",
    "address": "麻生区上麻生5-23-1",
    "postcode": "215-0021",
    "phone": "044-988-1453"
  },
  {
    "name": "すぎのこ保育園",
    "link": "http://www.city.kawasaki.jp/450/page/0000031731.html",
    "address": "麻生区岡上71-3",
    "postcode": "215-0027",
    "phone": "044-988-3415"
  },
  {
    "name": "あさのみ保育園",
    "link": "http://www.city.kawasaki.jp/450/page/0000031739.html",
    "address": "麻生区上麻生3-22-14",
    "postcode": "215-0021",
    "phone": "044-969-5403"
  },
  {
    "name": "保育園キディ百合丘",
    "link": "http://www.city.kawasaki.jp/450/page/0000031707.html",
    "address": "麻生区百合丘1-16　サンラフレ百合丘7-201",
    "postcode": "215-0011",
    "phone": "044-322-0510"
  },
  {
    "name": "はるひ野保育園",
    "link": "http://www.city.kawasaki.jp/450/page/0000031699.html",
    "address": "麻生区はるひ野2-7-1",
    "postcode": "215-0036",
    "phone": "044-281-8787"
  },
  {
    "name": "木下の保育園新百合ヶ丘",
    "link": "http://www.city.kawasaki.jp/450/page/0000031695.html",
    "address": "麻生区古沢43　コザワビル2階",
    "postcode": "215-0026",
    "phone": "044-959-1169"
  },
  {
    "name": "小学館アカデミー新ゆり山手保育園",
    "link": "http://www.city.kawasaki.jp/450/page/0000031689.html",
    "address": "麻生区万福寺4-19　プライムアリーナ新百合ヶ丘1・2階",
    "postcode": "215-0004",
    "phone": "044-959-2156"
  },
  {
    "name": "五月台ルミナス保育園",
    "link": "http://www.city.kawasaki.jp/450/page/0000031679.html",
    "address": "麻生区五力田3-18-3",
    "postcode": "215-0025",
    "phone": "044-299-9111"
  },
  {
    "name": "至誠館ゆりがおか保育園",
    "link": "http://www.city.kawasaki.jp/450/page/0000031674.html",
    "address": "麻生区百合丘1-18-4",
    "postcode": "215-0011",
    "phone": "044-966-5555"
  },
  {
    "name": "くろかわのぞみ保育園",
    "link": "http://www.city.kawasaki.jp/450/page/0000031672.html",
    "address": "麻生区はるひ野4-7-1",
    "postcode": "215-0036",
    "phone": "044-819-7481"
  },
  {
    "name": "アスク柿生保育園",
    "link": "http://www.city.kawasaki.jp/450/page/0000031663.html",
    "address": "麻生区上麻生5-40-4",
    "postcode": "215-0021",
    "phone": "044-980-0750"
  },
  {
    "name": "百合丘ルミナス保育園",
    "link": "http://www.city.kawasaki.jp/450/page/0000090346.html",
    "address": "麻生区百合丘1-19-2",
    "postcode": "215-0011",
    "phone": "044-969-5258"
  },
  {
    "name": "柿生ルミナス保育園",
    "link": "http://www.city.kawasaki.jp/450/page/0000078961.html",
    "address": "麻生区片平2-30-1",
    "postcode": "215-0023",
    "phone": "044-980-1622"
  },
  {
    "name": "天才キッズクラブ楽学館万福寺園",
    "link": "http://www.city.kawasaki.jp/450/page/0000118962.html",
    "address": "麻生区片平2-30-1",
    "postcode": "215-0023",
    "phone": "044-322-9739"
  },
  {
    "name": "あい・あい保育園百合ヶ丘園",
    "link": "http://www.city.kawasaki.jp/450/page/0000079522.html",
    "address": "麻生区万福寺4-1-3",
    "postcode": "215-0004",
    "phone": "044-543-8709"
  },
  {
    "name": "クレアナーサリー新百合ヶ丘",
    "link": "http://www.city.kawasaki.jp/450/page/0000060144.html",
    "address": "麻生区上麻生3-1-1",
    "postcode": "215-0021",
    "phone": "044-322-9251"
  },
  {
    "name": "くりの実保育園",
    "link": "http://www.city.kawasaki.jp/450/page/0000098539.html",
    "address": "麻生区片平4-1-30",
    "postcode": "215-0023",
    "phone": "044-712-0660"
  },
  {
    "name": "アイン栗平保育園",
    "link": "http://www.city.kawasaki.jp/450/page/0000079018.html",
    "address": "麻生区栗木台1-1-16",
    "postcode": "215-0032",
    "phone": "044-988-3115"
  },
  {
    "name": "天才キッズクラブ楽学館保育園",
    "link": "http://www.city.kawasaki.jp/450/page/0000079034.html",
    "address": "麻生区上麻生1-3-9　新百合ヶ丘KIビル2階",
    "postcode": "215-0021",
    "phone": "044-959-3773"
  },
  {
    "name": "天才キッズクラブ楽学館百合ヶ丘園",
    "link": "http://www.city.kawasaki.jp/450/page/0000098381.html",
    "address": "麻生区上麻生1-3-9　新百合ヶ丘KIビル2階",
    "postcode": "215-0021",
    "phone": "044-712-5025"
  },
  {
    "name": "天才キッズクラブ楽学館古沢園",
    "link": "http://www.city.kawasaki.jp/450/page/0000109001.html",
    "address": "麻生区片平2-30-1",
    "postcode": "215-0023",
    "phone": "044-455-5651"
  },
  {
    "name": "ポピンズナーサリースクール百合ヶ丘",
    "link": "http://www.city.kawasaki.jp/450/page/0000076548.html",
    "address": "麻生区百合丘1-24-9",
    "postcode": "215-0011",
    "phone": "044-959-5421"
  },
  {
    "name": "王禅寺しらゆり保育園",
    "link": "http://www.city.kawasaki.jp/450/page/0000079048.html",
    "address": "神奈川県川崎市麻生区王禅寺東5-3-53",
    "postcode": "215-0018",
    "phone": "044-988-0700"
  },
  {
    "name": "つくしんぼ保育園",
    "link": "http://www.city.kawasaki.jp/450/page/0000089833.html",
    "address": "麻生区上麻生3-3－11",
    "postcode": "215-0021",
    "phone": "044-967-0331"
  },
  {
    "name": "はじめの一歩保育園",
    "link": "http://www.city.kawasaki.jp/450/page/0000061141.html",
    "address": "麻生区上麻生7-41-5",
    "postcode": "215-0021",
    "phone": "044-981-5105"
  },
  {
    "name": "麻生ゆりのき保育園",
    "link": "http://www.city.kawasaki.jp/450/page/0000060143.html",
    "address": "麻生区千代ヶ丘1-17-2",
    "postcode": "215-0005",
    "phone": "044-543-9041"
  },
  {
    "name": "アスク新百合ヶ丘保育園",
    "link": "http://www.city.kawasaki.jp/450/page/0000048912.html",
    "address": "麻生区古沢197-6",
    "postcode": "215-0026",
    "phone": "044-969-5002"
  },
  {
    "name": "ぶれすと白鳥ほいくえん",
    "link": "http://www.city.kawasaki.jp/450/page/0000090676.html",
    "address": "麻生区白鳥三丁目5番1号",
    "postcode": "215-0021",
    "phone": "044-455-7266"
  }
]