[
  {
    "name": "菅保育園",
    "link": "http://www.city.kawasaki.jp/450/page/0000031428.html",
    "address": "多摩区菅1-5-24",
    "postcode": "214-0001",
    "phone": "044-945-5109"
  },
  {
    "name": "土渕保育園",
    "link": "http://www.city.kawasaki.jp/450/page/0000031534.html",
    "address": "多摩区生田2-14-5",
    "postcode": "214-0038",
    "phone": "044-933-8942"
  },
  {
    "name": "保育園アリス宿河原",
    "link": "http://www.city.kawasaki.jp/450/page/0000031547.html",
    "address": "多摩区宿河原3-13-9",
    "postcode": "214-0021",
    "phone": "044-455-5211"
  },
  {
    "name": "稲田保育園",
    "link": "http://www.city.kawasaki.jp/450/page/0000031366.html",
    "address": "多摩区登戸1416",
    "postcode": "214-0014",
    "phone": "044-933-7335"
  },
  {
    "name": "厚生館愛児園",
    "link": "http://www.city.kawasaki.jp/450/page/0000031382.html",
    "address": "多摩区菅稲田堤1-11-8",
    "postcode": "214-0003",
    "phone": "044-944-4733"
  },
  {
    "name": "龍厳寺保育園",
    "link": "http://www.city.kawasaki.jp/450/page/0000031395.html",
    "address": "多摩区堰3-11-13",
    "postcode": "214-0022",
    "phone": "044-811-0436"
  },
  {
    "name": "ひばり保育園",
    "link": "http://www.city.kawasaki.jp/450/page/0000031467.html",
    "address": "多摩区宿河原6-46-6",
    "postcode": "214-0021",
    "phone": "044-811-1255"
  },
  {
    "name": "第二厚生館愛児園",
    "link": "http://www.city.kawasaki.jp/450/page/0000031404.html",
    "address": "多摩区寺尾台1-1-19",
    "postcode": "214-0005",
    "phone": "044-955-2933"
  },
  {
    "name": "なごみ保育園",
    "link": "http://www.city.kawasaki.jp/450/page/0000031426.html",
    "address": "多摩区菅稲田堤3-9-2",
    "postcode": "214-0003",
    "phone": "044-944-2082"
  },
  {
    "name": "星の子愛児園",
    "link": "http://www.city.kawasaki.jp/450/page/0000031435.html",
    "address": "多摩区菅稲田堤1-17-25",
    "postcode": "214-0003",
    "phone": "044-944-8181"
  },
  {
    "name": "KFJ多摩なのはな保育園",
    "link": "http://www.city.kawasaki.jp/450/page/0000031460.html",
    "address": "多摩区登戸2249-1",
    "postcode": "214-0014",
    "phone": "044-930-1261"
  },
  {
    "name": "ひばりっこくらぶ保育園",
    "link": "http://www.city.kawasaki.jp/450/page/0000031471.html",
    "address": "多摩区宿河原6-35-16",
    "postcode": "214-0021",
    "phone": "044-844-7448"
  },
  {
    "name": "太陽の子保育園",
    "link": "http://www.city.kawasaki.jp/450/page/0000031478.html",
    "address": "多摩区栗谷2-16-14",
    "postcode": "214-0039",
    "phone": "044-954-3906"
  },
  {
    "name": "ハグミー・ナーサリー",
    "link": "http://www.city.kawasaki.jp/450/page/0000031482.html",
    "address": "多摩区中野島3-15-15",
    "postcode": "214-0012",
    "phone": "044-935-6788"
  },
  {
    "name": "そらまめ保育園　分園",
    "link": "http://www.city.kawasaki.jp/450/page/0000031512.html",
    "address": "多摩区宿河原1-1-40",
    "postcode": "214-0021",
    "phone": "044-900-1527"
  },
  {
    "name": "にじいろ保育園登戸",
    "link": "http://www.city.kawasaki.jp/450/page/0000031516.html",
    "address": "多摩区登戸3329-6",
    "postcode": "214-0014",
    "phone": "044-322-8041"
  },
  {
    "name": "うぃず宿河原保育園",
    "link": "http://www.city.kawasaki.jp/450/page/0000031519.html",
    "address": "多摩区長尾4-1-2",
    "postcode": "214-0023",
    "phone": "044-299-6846"
  },
  {
    "name": "ぶどうの実登戸園",
    "link": "http://www.city.kawasaki.jp/450/page/0000031524.html",
    "address": "多摩区登戸新町187 スカイノート101",
    "postcode": "214-0013",
    "phone": "044-931-3550"
  },
  {
    "name": "のぼりっこ保育園",
    "link": "http://www.city.kawasaki.jp/450/page/0000031533.html",
    "address": "多摩区登戸3185",
    "postcode": "214-0014",
    "phone": "044-932-1558"
  },
  {
    "name": "至誠館なしのはな保育園",
    "link": "http://www.city.kawasaki.jp/450/page/0000031541.html",
    "address": "多摩区菅稲田堤1-10-5",
    "postcode": "214-0003",
    "phone": "044-944-7451"
  },
  {
    "name": "宿河原もりのこ保育園",
    "link": "http://www.city.kawasaki.jp/450/page/0000031554.html",
    "address": "多摩区長尾1-11-6",
    "postcode": "214-0023",
    "phone": "044-900-6080"
  },
  {
    "name": "アスク向ヶ丘遊園北保育園",
    "link": "http://www.city.kawasaki.jp/450/page/0000031558.html",
    "address": "多摩区登戸514-1",
    "postcode": "214-0014",
    "phone": "044-922-2280"
  },
  {
    "name": "アスク向ヶ丘遊園南保育園",
    "link": "http://www.city.kawasaki.jp/450/page/0000031568.html",
    "address": "多摩区宿河原2-48-36",
    "postcode": "214-0021",
    "phone": "044-930-0102"
  },
  {
    "name": "うぃず稲田堤保育園",
    "link": "http://www.city.kawasaki.jp/450/page/0000031572.html",
    "address": "多摩区菅馬場2-5-9",
    "postcode": "214-0004",
    "phone": "044-712-7746"
  },
  {
    "name": "アスク宿河原保育園",
    "link": "http://www.city.kawasaki.jp/450/page/0000031577.html",
    "address": "多摩区宿河原2-5-1",
    "postcode": "214-0021",
    "phone": "044-934-1415"
  },
  {
    "name": "「こころの花」ほいくえん登戸駅前",
    "link": "http://www.city.kawasaki.jp/450/page/0000119789.html",
    "address": "多摩区登戸3277-1",
    "postcode": "214-0014",
    "phone": "044-322-0087"
  },
  {
    "name": "読売ランド前どろんこ保育園",
    "link": "http://www.city.kawasaki.jp/450/page/0000119790.html",
    "address": "多摩区西生田1-7-1",
    "postcode": "214-0037",
    "phone": "044-299-6561"
  },
  {
    "name": "ゆりの花保育園",
    "link": "http://www.city.kawasaki.jp/450/page/0000119808.html",
    "address": "多摩区登戸2949-1　2・3F",
    "postcode": "214-0014",
    "phone": "044-712-5244"
  },
  {
    "name": "溝口ピノキオ保育園",
    "link": "http://www.city.kawasaki.jp/450/page/0000119665.html",
    "address": "高津区溝口3-24-5",
    "postcode": "213-0001",
    "phone": "044-712-5301"
  },
  {
    "name": "すみれいろ保育園",
    "link": "http://www.city.kawasaki.jp/450/page/0000118761.html",
    "address": "多摩区宿河原3－3－15",
    "postcode": "214-0021",
    "phone": "044-543-8410"
  },
  {
    "name": "生田保育園",
    "link": "http://www.city.kawasaki.jp/450/page/0000031410.html",
    "address": "多摩区西生田3-15-10",
    "postcode": "214-0037",
    "phone": "044-966-2502"
  },
  {
    "name": "生田ルミナス保育園",
    "link": "http://www.city.kawasaki.jp/450/page/0000119052.html",
    "address": "多摩区三田1-7-7",
    "postcode": "214-0034",
    "phone": "044-712-4471"
  },
  {
    "name": "登戸ピノキオ保育園",
    "link": "http://www.city.kawasaki.jp/450/page/0000118755.html",
    "address": "多摩区生田2－20－23",
    "postcode": "214-0038",
    "phone": "044-819-5581"
  },
  {
    "name": "ウィズブック保育園中野島",
    "link": "http://www.city.kawasaki.jp/450/page/0000118764.html",
    "address": "多摩区中野島3－13－11",
    "postcode": "214-0012",
    "phone": "044-712-7260"
  },
  {
    "name": "天才キッズクラブ楽学館登戸園",
    "link": "http://www.city.kawasaki.jp/450/page/0000089132.html",
    "address": "多摩区登戸2184－1　トミタヤBLD1・2F",
    "postcode": "214-0014",
    "phone": "044-712-5048"
  },
  {
    "name": "中野島フレンズ保育園",
    "link": "http://www.city.kawasaki.jp/450/page/0000050760.html",
    "address": "多摩区布田18-25",
    "postcode": "214-0011",
    "phone": "044-944-9288"
  },
  {
    "name": "なかのしまのぞみ保育園",
    "link": "http://www.city.kawasaki.jp/450/page/0000050762.html",
    "address": "多摩区中野島4-20-23",
    "postcode": "214-0012",
    "phone": "044-328-5971"
  },
  {
    "name": "うぃず向ヶ丘遊園保育園",
    "link": "http://www.city.kawasaki.jp/450/page/0000072143.html",
    "address": "多摩区東生田1-11-12",
    "postcode": "214-0031",
    "phone": "044-922-9422"
  },
  {
    "name": "クレアナーサリー向ヶ丘遊園",
    "link": "http://www.city.kawasaki.jp/450/page/0000072150.html",
    "address": "多摩区登戸2700-4",
    "postcode": "214-0031",
    "phone": "044-819-4714"
  },
  {
    "name": "にじいろ保育園稲田堤",
    "link": "http://www.city.kawasaki.jp/450/page/0000099229.html",
    "address": "多摩区菅馬場1-23-32",
    "postcode": "214-0004",
    "phone": "044-299-8583"
  },
  {
    "name": "そらまめ保育園　本園",
    "link": "http://www.city.kawasaki.jp/450/page/0000109603.html",
    "address": "多摩区宿河原1-1-32",
    "postcode": "214-0021",
    "phone": "044-299-8760"
  },
  {
    "name": "こひばり保育園",
    "link": "http://www.city.kawasaki.jp/450/page/0000048915.html",
    "address": "多摩区堰2-6-21",
    "postcode": "214-0022",
    "phone": "044-819-5143"
  },
  {
    "name": "小学館アカデミー西いくた保育園",
    "link": "http://www.city.kawasaki.jp/450/page/0000058792.html",
    "address": "多摩区西生田3-13-7",
    "postcode": "214-0037",
    "phone": "044-969-7431"
  },
  {
    "name": "第2くまのこ園",
    "link": "http://www.city.kawasaki.jp/450/page/0000078243.html",
    "address": "多摩区菅稲田堤3-1-2",
    "postcode": "214-0003",
    "phone": "044-819-5263"
  },
  {
    "name": "登戸ゆりのき保育園",
    "link": "http://www.city.kawasaki.jp/450/page/0000089138.html",
    "address": "多摩区登戸2596　川崎信用金庫登戸支店4階及び5階一部",
    "postcode": "214-0014",
    "phone": "044-322-8075"
  },
  {
    "name": "西しゅくマーノ保育園",
    "link": "http://www.city.kawasaki.jp/450/page/0000048942.html",
    "address": "多摩区宿河原2-19-6",
    "postcode": "214-0021",
    "phone": "044-933-1152"
  },
  {
    "name": "三田かしのみ保育園",
    "link": "http://www.city.kawasaki.jp/450/page/0000059222.html",
    "address": "多摩区三田1-18-3",
    "postcode": "214-0034",
    "phone": "044-932-2111"
  },
  {
    "name": "ココファン・ナーサリー登戸",
    "link": "http://www.city.kawasaki.jp/450/page/0000069704.html",
    "address": "多摩区登戸1612",
    "postcode": "214-0014",
    "phone": "044-930-1251"
  },
  {
    "name": "のらぼう愛児園",
    "link": "http://www.city.kawasaki.jp/450/page/0000089935.html",
    "address": "多摩区菅5－2－1",
    "postcode": "214-0001",
    "phone": "044-945-6331"
  },
  {
    "name": "中野島のはら保育園",
    "link": "http://www.city.kawasaki.jp/450/page/0000089934.html",
    "address": "多摩区中野島4－4－15",
    "postcode": "214-0012",
    "phone": "044-455-5510"
  },
  {
    "name": "菅の子愛児園",
    "link": "http://www.city.kawasaki.jp/450/page/0000098376.html",
    "address": "多摩区菅稲田堤1－3－16",
    "postcode": "214-0003",
    "phone": "044-945-2221"
  },
  {
    "name": "南いくた保育園",
    "link": "http://www.city.kawasaki.jp/450/page/0000098698.html",
    "address": "多摩区南生田3-2-7",
    "postcode": "214-0036",
    "phone": "044-712-4656"
  },
  {
    "name": "アスク生田保育園",
    "link": "http://www.city.kawasaki.jp/450/page/0000060142.html",
    "address": "多摩区生田8-8-14",
    "postcode": "214-0038",
    "phone": "044-911-7791"
  }
]